{"type":"FeatureCollection", "features": [
{"type":"Feature","geometry":{"type":"Polygon","coordinates":[[[-66.806,-9.8141],[-67.4961,-9.5242],[-68.1884,-9.2323],[-68.7845,-8.9722],[-69.1777,-8.7676],[-69.4353,-8.6412],[-70.369,-8.141],[-70.9369,-8.0187],[-71.5125,-7.8869],[-72.0046,-7.7745],[-72.1727,-7.7235],[-72.6588,-7.6246],[-72.8696,-7.5285],[-73.6082,-7.2019],[-73.8037,-7.1111],[-73.7131,-7.2351],[-73.7171,-7.3279],[-73.9669,-7.3598],[-73.9252,-7.4607],[-73.943,-7.5993],[-73.8266,-7.7156],[-73.6909,-7.7674],[-73.6833,-7.843],[-73.7694,-7.8702],[-73.7443,-7.9564],[-73.6783,-8.0047],[-73.5861,-8.1272],[-73.5969,-8.2054],[-73.5362,-8.2699],[-73.5367,-8.3455],[-73.4122,-8.4106],[-73.3892,-8.4693],[-73.2798,-8.4748],[-73.2906,-8.6146],[-73.225,-8.6777],[-73.1165,-8.7259],[-73.0403,-8.8923],[-72.9921,-8.9204],[-72.9396,-9.0617],[-72.9642,-9.147],[-73.0801,-9.237],[-73.2148,-9.4109],[-72.7166,-9.4108],[-72.5102,-9.4849],[-72.4089,-9.4771],[-72.3427,-9.5053],[-72.2462,-9.6568],[-72.271,-9.7494],[-72.1771,-9.7821],[-72.1405,-9.8775],[-72.1804,-9.9998],[-71.3767,-10.0006],[-71.2123,-9.9666],[-71.1731,-9.8881],[-71.0513,-9.8141],[-70.9986,-9.8136],[-70.8702,-9.6643],[-70.7939,-9.6359],[-70.5655,-9.4269],[-70.5149,-9.4934],[-70.5976,-9.6056],[-70.5259,-9.7132],[-70.5378,-9.7649],[-70.6227,-9.8214],[-70.626,-10.363],[-70.6216,-10.9995],[-70.531,-10.9346],[-70.4373,-11.0391],[-70.3114,-11.0696],[-70.2004,-11.0534],[-69.9541,-10.9271],[-69.8113,-10.9253],[-69.7369,-10.9742],[-69.602,-10.9419],[-69.4552,-10.9489],[-69.4159,-10.927],[-68.9075,-11.0184],[-68.8111,-10.9954],[-68.7156,-11.1431],[-68.5428,-11.1088],[-68.4874,-11.0505],[-68.3258,-11.0093],[-68.2377,-10.9563],[-68.1948,-10.8585],[-68.1034,-10.7746],[-68.1039,-10.7148],[-68.0285,-10.6559],[-67.8246,-10.6528],[-67.7074,-10.7081],[-67.6762,-10.6047],[-67.5876,-10.5099],[-67.4134,-10.4271],[-67.4063,-10.3736],[-67.3127,-10.3768],[-67.3147,-10.3199],[-67.1871,-10.3402],[-67.1363,-10.2976],[-67.0113,-10.254],[-66.9919,-10.2026],[-66.8663,-10.0842],[-66.7312,-9.9804],[-66.6379,-9.949],[-66.6193,-9.8936],[-66.806,-9.8141]]]},"properties":{"name":"AC","fullName":"Acre"}},
{"type":"Feature","geometry":{"type":"Polygon","coordinates":[[[-35.152,-8.913],[-35.5175,-8.8169],[-35.7479,-8.9167],[-35.7871,-8.8507],[-35.9108,-8.861],[-36.1265,-8.9556],[-36.1237,-9.0301],[-36.1953,-9.0444],[-36.2737,-9.1658],[-36.3653,-9.2222],[-36.4366,-9.2117],[-36.5858,-9.3377],[-36.6934,-9.2749],[-36.7967,-9.2926],[-36.8678,-9.2681],[-36.952,-9.3821],[-37.0836,-9.2519],[-37.2331,-9.2062],[-37.3151,-9.0939],[-37.469,-9.0273],[-37.5408,-8.9581],[-37.6432,-9.0179],[-37.7599,-8.8572],[-37.8287,-8.8934],[-37.8387,-8.978],[-37.9789,-9.148],[-38.0919,-9.1723],[-38.158,-9.2639],[-38.2371,-9.3293],[-38.1546,-9.443],[-38.0283,-9.4676],[-38.003,-9.5146],[-37.8858,-9.5497],[-37.7848,-9.6382],[-37.7114,-9.6309],[-37.5814,-9.7335],[-37.4665,-9.7491],[-37.285,-9.8305],[-37.2262,-9.899],[-37.1525,-9.9004],[-37.0374,-9.9887],[-36.9667,-9.9936],[-36.9105,-10.1375],[-36.8109,-10.219],[-36.6831,-10.2733],[-36.6427,-10.2523],[-36.5665,-10.3323],[-36.5638,-10.4159],[-36.4311,-10.4239],[-36.3934,-10.4981],[-36.2933,-10.3545],[-36.2717,-10.2746],[-36.0867,-10.0929],[-36.0461,-10.0753],[-35.9398,-9.9053],[-35.8123,-9.7318],[-35.7084,-9.665],[-35.6494,-9.5671],[-35.5916,-9.5298],[-35.4568,-9.3421],[-35.3961,-9.3026],[-35.3071,-9.1929],[-35.2383,-9.0486],[-35.152,-8.913]]]},"properties":{"name":"AL","fullName":"Alagoas"}},
{"type":"Feature","geometry":{"type":"Polygon","coordinates":[[[-66.806,-9.8141],[-66.775,-9.7527],[-66.5002,-9.6332],[-66.392,-9.5001],[-66.3744,-9.426],[-66.2593,-9.4106],[-66.1732,-9.434],[-66.1235,-9.4084],[-65.9699,-9.4128],[-65.9122,-9.4834],[-65.8246,-9.5297],[-65.7996,-9.5846],[-65.7231,-9.5587],[-65.679,-9.451],[-65.5963,-9.4135],[-65.5027,-9.4696],[-65.4561,-9.4008],[-65.4398,-9.3114],[-65.377,-9.324],[-65.2462,-9.2573],[-65.2113,-9.2786],[-65.1863,-9.4146],[-65.1424,-9.4464],[-65.0531,-9.4018],[-65,-9.3042],[-64.9192,-9.2199],[-64.9394,-9.1242],[-64.8701,-9.0118],[-64.5875,-9.0091],[-64.5496,-8.9779],[-64.4461,-8.9765],[-64.3229,-8.9285],[-64.3108,-8.9961],[-64.2327,-8.9919],[-64.1413,-8.9447],[-64.1577,-8.8428],[-64.1426,-8.7427],[-64.035,-8.6932],[-63.9857,-8.5853],[-63.9241,-8.5751],[-63.9727,-8.4781],[-63.9403,-8.4519],[-63.9436,-8.3308],[-63.8702,-8.2884],[-63.7907,-8.3328],[-63.7222,-8.2491],[-63.6213,-8.0292],[-63.6203,-7.9689],[-63.5,-7.9759],[-62.8661,-7.9755],[-62.6917,-8.0925],[-62.6494,-8.2367],[-62.5849,-8.2715],[-62.5179,-8.3844],[-62.4649,-8.3394],[-62.3603,-8.3982],[-62.3655,-8.4932],[-62.2684,-8.5754],[-62.1879,-8.5902],[-62.1244,-8.8013],[-62.0305,-8.7993],[-61.9897,-8.8723],[-61.8595,-8.8527],[-61.8436,-8.747],[-61.7741,-8.7479],[-61.7413,-8.6948],[-61.6259,-8.7285],[-61.5824,-8.7983],[-60.8483,-8.7978],[-60.4195,-8.7962],[-59.7044,-8.8013],[-59.1267,-8.803],[-58.4998,-8.8024],[-58.3949,-8.7798],[-58.4369,-8.703],[-58.3907,-8.5919],[-58.4167,-8.4919],[-58.318,-8.3298],[-58.3221,-8.1696],[-58.2911,-8.0739],[-58.3729,-7.9068],[-58.3824,-7.8387],[-58.2943,-7.7719],[-58.2805,-7.7092],[-58.2016,-7.6205],[-58.2125,-7.4581],[-58.1364,-7.3561],[-58.1695,-7.3128],[-58.1828,-7.1779],[-58.3383,-6.9835],[-58.434,-6.9084],[-58.4812,-6.7811],[-58.4779,-6.6992],[-58.4268,-6.6158],[-58.3494,-6.562],[-58.3251,-6.4989],[-58.262,-6.4686],[-57.8609,-5.6007],[-57.5476,-4.9212],[-57.0184,-3.798],[-56.8867,-3.4987],[-56.4871,-2.6326],[-56.4017,-2.4563],[-56.464,-2.4313],[-56.3838,-2.2701],[-56.263,-2.2207],[-56.1689,-2.1452],[-56.0981,-2.0267],[-56.2279,-2.0559],[-56.4134,-2.1756],[-56.5266,-2.1389],[-56.6124,-2.2098],[-56.6786,-2.2122],[-56.7689,-2.1403],[-56.7208,-2.0488],[-56.7474,-2.0112],[-56.8585,-2.0156],[-57.0367,-1.9112],[-57.0973,-1.7748],[-57.2739,-1.7094],[-57.3516,-1.7328],[-57.4114,-1.6729],[-57.4747,-1.6777],[-57.5896,-1.5798],[-57.6782,-1.594],[-57.7126,-1.5038],[-57.7728,-1.5085],[-57.8235,-1.4394],[-57.918,-1.4195],[-57.9959,-1.344],[-57.965,-1.2058],[-58.017,-1.1058],[-58.0813,-1.1262],[-58.1621,-1.2293],[-58.2543,-1.1323],[-58.3228,-1.143],[-58.368,-1.0657],[-58.4296,-1.0268],[-58.4142,-0.9667],[-58.5005,-0.836],[-58.5601,-0.8043],[-58.7315,-0.627],[-58.7102,-0.5211],[-58.7247,-0.4419],[-58.8715,-0.3427],[-58.8805,-0.1963],[-58.8634,-0.0777],[-58.8945,-0.0106],[-58.8949,0.2639],[-59.433,0.2639],[-60.0374,0.2638],[-60.0586,0.1633],[-60.1158,0.1336],[-60.1427,0.0377],[-60.2027,-0.0333],[-60.22,-0.135],[-60.2853,-0.2103],[-60.2894,-0.2928],[-60.3442,-0.4403],[-60.3994,-0.5098],[-60.3031,-0.7109],[-60.4341,-0.7723],[-60.4786,-0.7706],[-60.5305,-0.8747],[-60.5908,-0.8531],[-60.6541,-0.8828],[-60.7522,-0.8609],[-60.7605,-0.7611],[-60.975,-0.5623],[-61.0869,-0.4998],[-61.2225,-0.5053],[-61.2236,-0.5592],[-61.3479,-0.5952],[-61.4564,-0.6567],[-61.5383,-0.7559],[-61.543,-0.852],[-61.578,-0.9097],[-61.5461,-1.0709],[-61.6264,-1.2936],[-61.5816,-1.3531],[-61.6044,-1.4478],[-61.7975,-1.3803],[-61.8961,-1.395],[-62.0169,-1.1414],[-62.0991,-1.0964],[-62.1714,-1.0056],[-62.3122,-0.93],[-62.3953,-0.82],[-62.5005,-0.7811],[-62.4691,-0.6936],[-62.3667,-0.7097],[-62.287,-0.638],[-62.3178,-0.5522],[-62.2734,-0.4538],[-62.2267,-0.4255],[-62.1878,-0.3305],[-62.2531,-0.2711],[-62.2445,-0.1744],[-62.3192,-0.1022],[-62.3461,0.0299],[-62.4144,0.0747],[-62.4522,0.2077],[-62.4664,0.3333],[-62.4458,0.3794],[-62.5325,0.5091],[-62.528,0.7105],[-62.4572,0.7855],[-62.4855,0.8669],[-62.4453,0.9772],[-62.5206,1.0841],[-62.5864,1.2558],[-62.6197,1.4041],[-62.7303,1.4999],[-62.8039,1.5907],[-62.7232,1.7127],[-62.7305,1.8185],[-62.7055,1.94],[-62.8383,2.0168],[-62.948,2.0313],[-63.0233,2.015],[-63.1193,2.0968],[-63.141,2.1728],[-63.2823,2.1542],[-63.3718,2.2121],[-63.3971,2.1473],[-63.4919,2.1158],[-63.5613,2.1327],[-63.8297,1.9684],[-63.9608,1.9928],[-64.06,1.9314],[-64.0774,1.7594],[-64.0608,1.702],[-64.0946,1.6175],[-64.3015,1.4686],[-64.3422,1.3847],[-64.3994,1.3953],[-64.4379,1.4723],[-64.5525,1.4171],[-64.5902,1.3378],[-64.7013,1.2917],[-64.7633,1.2311],[-64.8099,1.3147],[-64.9051,1.2412],[-65.0216,1.1154],[-65.1025,1.157],[-65.1544,1.1254],[-65.1644,0.9509],[-65.2406,0.9225],[-65.3285,0.9319],[-65.4124,0.8161],[-65.3969,0.7504],[-65.4522,0.6858],[-65.5299,0.668],[-65.5906,0.7223],[-65.548,0.7751],[-65.5077,0.9159],[-65.585,1.0093],[-65.7388,1],[-65.8609,0.9303],[-65.9708,0.8065],[-66.0695,0.8054],[-66.1505,0.7449],[-66.213,0.7819],[-66.3179,0.7554],[-66.8564,1.2306],[-67.0876,1.1673],[-67.0718,1.443],[-67.0968,1.733],[-67.1565,1.8493],[-67.2775,1.8762],[-67.3363,2.0985],[-67.3429,2.2059],[-67.3887,2.2444],[-67.5502,2.1422],[-67.6191,2.0241],[-67.7788,2.0315],[-67.9406,1.8312],[-68.0867,1.9018],[-68.1393,1.9855],[-68.2426,1.9272],[-68.2663,1.8278],[-68.236,1.773],[-68.1562,1.7321],[-69.178,1.7339],[-69.3842,1.7301],[-69.5517,1.7919],[-69.6568,1.7375],[-69.7107,1.7497],[-69.8415,1.7209],[-69.8438,1.0856],[-69.8017,1.074],[-69.7104,1.1267],[-69.6841,1.0773],[-69.3212,1.0961],[-69.2124,1.0206],[-69.22,0.9854],[-69.1353,0.8776],[-69.1445,0.7835],[-69.1856,0.7336],[-69.2122,0.6101],[-69.3684,0.628],[-69.4808,0.7359],[-69.6064,0.6299],[-69.6795,0.6709],[-69.8088,0.573],[-70.0427,0.5594],[-70.0459,0.0688],[-70.0413,-0.1237],[-70.0571,-0.1863],[-69.9228,-0.3311],[-69.8445,-0.3453],[-69.7171,-0.4546],[-69.6142,-0.5056],[-69.5734,-0.6494],[-69.622,-0.7316],[-69.4696,-0.9599],[-69.3983,-1.1442],[-69.4308,-1.2326],[-69.3995,-1.3703],[-69.4338,-1.3978],[-69.5362,-2.016],[-69.6972,-2.9208],[-69.8392,-3.6959],[-69.935,-4.216],[-69.9808,-4.327],[-70.0325,-4.3546],[-70.1025,-4.2755],[-70.1521,-4.3351],[-70.255,-4.3179],[-70.2893,-4.2818],[-70.2986,-4.1656],[-70.439,-4.1339],[-70.5218,-4.1426],[-70.6809,-4.199],[-70.7587,-4.1596],[-70.8076,-4.1832],[-70.8801,-4.3223],[-70.9493,-4.3791],[-71.2688,-4.3846],[-71.286,-4.4423],[-71.481,-4.4424],[-71.6144,-4.5327],[-71.8003,-4.4905],[-71.8889,-4.5206],[-72.1003,-4.7021],[-72.2467,-4.7801],[-72.371,-4.8068],[-72.3836,-4.8676],[-72.4584,-4.9254],[-72.6063,-4.9947],[-72.6533,-5.0625],[-72.8855,-5.1659],[-72.8634,-5.2391],[-72.9566,-5.4644],[-72.9536,-5.5395],[-72.9931,-5.7035],[-73.1165,-5.8533],[-73.1511,-5.8629],[-73.1928,-5.9836],[-73.2362,-6.0312],[-73.249,-6.1442],[-73.1671,-6.2736],[-73.1088,-6.4093],[-73.1521,-6.5193],[-73.2128,-6.5761],[-73.3562,-6.5942],[-73.3823,-6.6346],[-73.5153,-6.6761],[-73.6178,-6.7406],[-73.7533,-6.9412],[-73.7255,-7.0218],[-73.8037,-7.1111],[-73.6082,-7.2019],[-72.8696,-7.5285],[-72.6588,-7.6246],[-72.1727,-7.7235],[-72.0046,-7.7745],[-71.5125,-7.8869],[-70.9369,-8.0187],[-70.369,-8.141],[-69.4353,-8.6412],[-69.1777,-8.7676],[-68.7845,-8.9722],[-68.1884,-9.2323],[-67.4961,-9.5242],[-66.806,-9.8141]]]},"properties":{"name":"AM","fullName":"Amazonas"}},
{"type":"Feature","geometry":{"type":"Polygon","coordinates":[[[-50.0935,0.7024],[-50.0927,0.7793],[-49.9404,0.9938],[-49.9415,1.1028],[-49.8932,1.1933],[-49.9099,1.2968],[-49.8758,1.4811],[-49.9213,1.7043],[-50.0334,1.7709],[-50.1692,1.8146],[-50.2377,1.8036],[-50.352,2.0871],[-50.4558,2.204],[-50.5215,2.2087],[-50.6653,2.1512],[-50.7218,2.2375],[-50.768,2.4577],[-50.8311,2.5332],[-50.8406,2.639],[-50.8814,2.7417],[-50.941,2.8146],[-51.0353,3.1376],[-51.0216,3.2084],[-51.0872,3.3921],[-51.0705,3.4918],[-51.0904,3.6802],[-51.0751,3.8909],[-51.1785,3.9451],[-51.1844,4.051],[-51.2515,4.1917],[-51.4272,4.3739],[-51.5136,4.437],[-51.5535,4.4152],[-51.5949,4.1918],[-51.6459,4.045],[-51.7755,3.9597],[-51.8018,3.8817],[-51.9237,3.7839],[-51.9957,3.6268],[-52.0935,3.4898],[-52.2315,3.2504],[-52.2914,3.2335],[-52.3506,3.137],[-52.3284,3.0806],[-52.4831,2.777],[-52.5523,2.607],[-52.5541,2.5167],[-52.6112,2.4757],[-52.6644,2.3808],[-52.8557,2.2752],[-52.9049,2.1873],[-52.984,2.1576],[-53.0785,2.2122],[-53.2648,2.1893],[-53.2341,2.2758],[-53.3671,2.3211],[-53.4725,2.2571],[-53.8235,2.318],[-53.9414,2.2786],[-53.9418,2.2428],[-54.1885,2.1792],[-54.436,2.2103],[-54.6011,2.3375],[-54.6915,2.3618],[-54.6844,2.4472],[-54.7435,2.4719],[-54.8717,2.4341],[-54.7938,2.313],[-54.7626,2.2026],[-54.8058,2.1392],[-54.8108,2.0397],[-54.7711,1.9408],[-54.7443,1.7761],[-54.6014,1.7849],[-54.4955,1.7473],[-54.3772,1.764],[-54.3088,1.7414],[-54.1015,1.5846],[-54.0883,1.4923],[-53.999,1.5051],[-53.8955,1.4554],[-53.8499,1.3922],[-53.7832,1.4032],[-53.5381,1.3412],[-53.5562,1.2851],[-53.4383,1.2324],[-53.4568,1.1386],[-53.411,0.9297],[-53.1898,0.7687],[-53.1434,0.6966],[-53.1748,0.382],[-53.0936,0.2593],[-52.9768,0.0241],[-52.9332,-0.1392],[-52.8511,-0.1498],[-52.6837,-0.314],[-52.695,-0.4961],[-52.6395,-0.5846],[-52.5347,-0.5738],[-52.4969,-0.711],[-52.5165,-0.8583],[-52.4438,-0.8338],[-52.4027,-0.8768],[-52.4163,-1.0253],[-52.3325,-1.1156],[-52.1198,-1.1459],[-52.0999,-1.2262],[-51.9929,-1.1286],[-51.8868,-1.1661],[-51.8086,-1.1568],[-51.6868,-1.0357],[-51.6836,-0.7972],[-51.5951,-0.6501],[-51.4573,-0.5129],[-51.354,-0.3182],[-51.2159,-0.1183],[-51.0652,-0.0759],[-50.9744,0.0421],[-50.7843,0.1124],[-50.6677,0.1854],[-50.5795,0.2701],[-50.4758,0.4818],[-50.4361,0.6004],[-50.3468,0.6672],[-50.1976,0.7012],[-50.0935,0.7024]]]},"properties":{"name":"AP","fullName":"Amapá"}},
{"type":"Feature","geometry":{"type":"Polygon","coordinates":[[[-38.2371,-9.3293],[-38.3183,-9.1406],[-38.3202,-8.9907],[-38.4081,-9.0381],[-38.5191,-8.9479],[-38.4696,-8.8651],[-38.5708,-8.8312],[-38.6403,-8.9869],[-38.6918,-8.9374],[-38.7062,-8.8619],[-38.7984,-8.7924],[-38.9433,-8.8038],[-39.0321,-8.7369],[-39.2334,-8.7054],[-39.2882,-8.5629],[-39.3834,-8.5332],[-39.6072,-8.6556],[-39.6908,-8.6619],[-39.6742,-8.7867],[-39.8943,-8.8313],[-39.8736,-8.9309],[-39.9576,-9.0482],[-40.0653,-9.0628],[-40.1283,-9.1092],[-40.2273,-9.0557],[-40.2713,-9.0806],[-40.3074,-9.271],[-40.3577,-9.3768],[-40.4355,-9.3618],[-40.4679,-9.4201],[-40.5375,-9.4213],[-40.6228,-9.4825],[-40.7218,-9.4455],[-40.7369,-9.3365],[-40.6803,-9.2587],[-40.667,-9.1587],[-40.8196,-9.08],[-40.8512,-8.9521],[-40.921,-8.835],[-41.1014,-8.7816],[-41.1133,-8.7036],[-41.2266,-8.7043],[-41.2811,-8.7357],[-41.3579,-8.7072],[-41.4238,-8.8021],[-41.4875,-8.8435],[-41.5445,-8.9376],[-41.6801,-9.0119],[-41.7997,-9.1476],[-41.8376,-9.2419],[-41.9244,-9.2774],[-41.9719,-9.2482],[-42.1001,-9.2806],[-42.2258,-9.2834],[-42.3188,-9.3198],[-42.4514,-9.4617],[-42.6212,-9.5408],[-42.7165,-9.5559],[-42.8202,-9.6188],[-42.9459,-9.518],[-42.9875,-9.4009],[-43.0542,-9.4149],[-43.1196,-9.3721],[-43.2847,-9.4196],[-43.4613,-9.2614],[-43.5742,-9.3177],[-43.6864,-9.4176],[-43.7693,-9.4416],[-43.8493,-9.5476],[-43.8416,-9.637],[-43.7845,-9.762],[-43.6528,-9.8386],[-43.7086,-9.9128],[-43.6656,-9.9898],[-43.6925,-10.077],[-43.7588,-10.0742],[-43.7787,-10.1801],[-43.9168,-10.424],[-44.0289,-10.416],[-44.0254,-10.4751],[-44.0726,-10.5803],[-44.1298,-10.6326],[-44.2636,-10.6243],[-44.3352,-10.5486],[-44.4791,-10.64],[-44.5891,-10.632],[-44.713,-10.7616],[-44.7876,-10.8081],[-44.808,-10.8646],[-44.9308,-10.9283],[-45.0728,-10.84],[-45.2476,-10.8216],[-45.2714,-10.7741],[-45.3578,-10.7318],[-45.4274,-10.6346],[-45.4468,-10.507],[-45.4026,-10.4649],[-45.4299,-10.3591],[-45.5167,-10.2861],[-45.6028,-10.1076],[-45.7225,-10.1549],[-45.6971,-10.2632],[-45.7507,-10.3516],[-45.8243,-10.3656],[-45.8876,-10.4491],[-46.0246,-10.5424],[-46.0591,-10.593],[-46.2105,-10.6493],[-46.1921,-10.7193],[-46.2755,-10.8232],[-46.283,-10.9063],[-46.3985,-10.994],[-46.4719,-11.1908],[-46.5816,-11.2464],[-46.6155,-11.3018],[-46.5489,-11.3803],[-46.5196,-11.4831],[-46.4109,-11.5415],[-46.313,-11.5391],[-46.1866,-11.6057],[-46.3147,-11.6442],[-46.3742,-11.8682],[-46.2846,-11.8855],[-46.3732,-12.015],[-46.3725,-12.2898],[-46.2486,-12.4366],[-46.1587,-12.4749],[-46.1602,-12.5282],[-46.2548,-12.5466],[-46.2898,-12.6313],[-46.2619,-12.8312],[-46.3044,-12.9494],[-46.1139,-12.9175],[-46.1254,-12.961],[-46.2729,-13.0145],[-46.3222,-13.0979],[-46.2945,-13.1309],[-46.3297,-13.2524],[-46.279,-13.3475],[-46.0634,-13.2609],[-46.048,-13.3088],[-46.1332,-13.3752],[-46.2139,-13.4003],[-46.2409,-13.5251],[-46.1615,-13.5905],[-46.2555,-13.6935],[-46.2283,-13.7741],[-46.2677,-13.9433],[-46.2123,-14.0219],[-46.236,-14.1068],[-46.0205,-14.26],[-45.9628,-14.2855],[-45.9272,-14.4099],[-45.9984,-14.4289],[-45.9805,-14.5299],[-46.0006,-14.6012],[-46.0076,-14.7928],[-46.037,-14.8736],[-45.9657,-14.9652],[-45.9751,-15.0385],[-46.0433,-15.1177],[-46.0276,-15.2009],[-45.918,-15.1331],[-45.7512,-15.1218],[-45.6743,-15.08],[-45.5657,-14.9444],[-45.4896,-14.9603],[-45.1658,-14.735],[-45.095,-14.7524],[-45.0391,-14.6798],[-44.8761,-14.5928],[-44.8134,-14.5042],[-44.5568,-14.3366],[-44.2402,-14.2403],[-44.0341,-14.2884],[-43.8357,-14.3107],[-43.819,-14.3889],[-43.8735,-14.5201],[-43.8831,-14.6528],[-43.7195,-14.7291],[-43.5734,-14.7647],[-43.5388,-14.8053],[-43.4609,-14.7458],[-43.3108,-14.6693],[-43.1759,-14.6501],[-42.9523,-14.708],[-42.9055,-14.7606],[-42.7547,-14.846],[-42.6249,-14.944],[-42.4364,-15.0223],[-42.4425,-15.0602],[-42.2644,-15.1247],[-42.1529,-15.0989],[-42.0957,-15.182],[-41.953,-15.1752],[-41.8003,-15.1006],[-41.356,-15.4998],[-41.3308,-15.7442],[-41.1691,-15.7601],[-41.0068,-15.7134],[-40.9619,-15.6484],[-40.8551,-15.6867],[-40.699,-15.6682],[-40.629,-15.7152],[-40.5617,-15.8028],[-40.4602,-15.7533],[-40.4246,-15.8052],[-40.2184,-15.8353],[-40.1489,-15.9049],[-40.0864,-15.9131],[-40.004,-16.0014],[-39.9218,-16.0282],[-39.8564,-16.1134],[-39.9601,-16.3214],[-40.0244,-16.3564],[-40.1708,-16.5237],[-40.1595,-16.5798],[-40.2751,-16.5736],[-40.3354,-16.7792],[-40.2574,-16.8061],[-40.2812,-16.9007],[-40.3661,-16.8737],[-40.4908,-16.884],[-40.5451,-16.9838],[-40.5783,-17.1483],[-40.5535,-17.1886],[-40.5993,-17.3899],[-40.5203,-17.4469],[-40.4603,-17.5682],[-40.3218,-17.644],[-40.28,-17.7223],[-40.2235,-17.7336],[-40.1747,-17.8522],[-40.2631,-17.9215],[-40.222,-17.9799],[-39.6885,-18.3203],[-39.6702,-18.3487],[-39.6356,-18.2344],[-39.4923,-17.9975],[-39.3973,-17.9167],[-39.2708,-17.8711],[-39.2599,-17.8302],[-39.1369,-17.6842],[-39.1944,-17.579],[-39.1909,-17.4465],[-39.2169,-17.3362],[-39.2126,-17.1682],[-39.173,-17.014],[-39.1241,-16.9033],[-39.141,-16.7567],[-39.1072,-16.7094],[-39.0582,-16.4271],[-39.0082,-16.375],[-39.0172,-16.2523],[-38.9577,-16.1248],[-38.8606,-15.8322],[-38.9227,-15.709],[-38.9422,-15.5278],[-38.9988,-15.2283],[-38.9978,-14.9936],[-39.0244,-14.8057],[-39.0531,-14.7778],[-39.0646,-14.6366],[-38.982,-14.2957],[-38.9891,-14.1873],[-38.9281,-13.9065],[-38.9997,-13.7831],[-38.9878,-13.7146],[-38.8901,-13.6239],[-38.9316,-13.5249],[-38.888,-13.4478],[-38.909,-13.3802],[-38.9677,-13.344],[-38.9321,-13.2174],[-38.7631,-13.1178],[-38.714,-13.0598],[-38.5828,-12.9993],[-38.4719,-13.012],[-38.3475,-12.9505],[-38.2475,-12.8536],[-38.0036,-12.5769],[-37.9732,-12.5167],[-37.7804,-12.2499],[-37.622,-11.995],[-37.5147,-11.7416],[-37.4119,-11.543],[-37.3425,-11.4434],[-37.4439,-11.5161],[-37.5526,-11.5469],[-37.6316,-11.518],[-37.6882,-11.5658],[-37.8133,-11.5139],[-37.8676,-11.442],[-37.9675,-11.3902],[-38.003,-11.2891],[-37.9808,-11.1987],[-38.072,-11.1525],[-38.1112,-11.0095],[-38.1756,-10.9849],[-38.2291,-10.9155],[-38.2415,-10.8002],[-38.2115,-10.7087],[-38.0579,-10.7081],[-37.9995,-10.7639],[-37.8135,-10.6906],[-37.83,-10.5843],[-37.8126,-10.5081],[-37.8587,-10.426],[-37.8303,-10.3745],[-37.7362,-10.3316],[-37.774,-10.1444],[-37.8314,-10.0005],[-37.9677,-9.9621],[-37.9973,-9.9103],[-37.966,-9.8195],[-38.0278,-9.7757],[-38.0395,-9.6862],[-38.0066,-9.6513],[-38.04,-9.5727],[-38.003,-9.5146],[-38.0283,-9.4676],[-38.1546,-9.443],[-38.2371,-9.3293]]]},"properties":{"name":"BA","fullName":"Bahia"}},
{"type":"Feature","geometry":{"type":"Polygon","coordinates":[[[-40.018,-2.837],[-40.1872,-2.8141],[-40.4355,-2.8109],[-40.4994,-2.7841],[-40.5725,-2.8388],[-40.7759,-2.8539],[-41.0088,-2.8917],[-41.2584,-2.884],[-41.3223,-2.921],[-41.2719,-2.9709],[-41.2563,-3.0877],[-41.3221,-3.1794],[-41.4231,-3.3677],[-41.3444,-3.419],[-41.3253,-3.5361],[-41.3414,-3.6804],[-41.2551,-3.7029],[-41.2871,-3.8219],[-41.2199,-3.9411],[-41.2489,-3.9895],[-41.12,-4.036],[-41.1374,-4.119],[-41.1189,-4.3129],[-41.1596,-4.3811],[-41.2327,-4.6092],[-41.1739,-4.6671],[-41.2488,-4.8687],[-41.2203,-4.9372],[-41.1222,-5.0077],[-41.0797,-5.0907],[-40.9286,-5.1713],[-40.9129,-5.3077],[-40.9421,-5.4199],[-40.932,-5.5485],[-40.9007,-5.6154],[-40.9384,-5.673],[-40.8465,-6.1317],[-40.8518,-6.2238],[-40.7791,-6.343],[-40.8048,-6.3927],[-40.7873,-6.5234],[-40.7455,-6.5652],[-40.7098,-6.6757],[-40.6067,-6.7137],[-40.4759,-6.7341],[-40.4128,-6.8564],[-40.4273,-7.0335],[-40.4894,-7.1183],[-40.5118,-7.3014],[-40.5481,-7.3923],[-40.319,-7.374],[-40.2461,-7.4333],[-39.9611,-7.3886],[-39.9152,-7.3378],[-39.6622,-7.3102],[-39.4785,-7.4457],[-39.3963,-7.4749],[-39.3172,-7.5409],[-39.2716,-7.6601],[-39.1353,-7.723],[-39.0534,-7.8189],[-38.9646,-7.8294],[-38.942,-7.7632],[-38.8216,-7.7144],[-38.7147,-7.6215],[-38.6549,-7.5651],[-38.6445,-7.4596],[-38.5849,-7.4344],[-38.5342,-7.2934],[-38.6765,-7.1685],[-38.656,-7.092],[-38.7495,-6.9976],[-38.7559,-6.9032],[-38.675,-6.8614],[-38.6411,-6.7904],[-38.6728,-6.6968],[-38.6119,-6.5128],[-38.5298,-6.393],[-38.564,-6.3558],[-38.5782,-6.2798],[-38.5193,-6.2227],[-38.4469,-6.0849],[-38.3044,-6.0866],[-38.2513,-6.01],[-38.1246,-5.8872],[-38.1105,-5.8188],[-38.0467,-5.73],[-38.0823,-5.6722],[-37.9896,-5.5554],[-37.9044,-5.5008],[-37.8471,-5.3396],[-37.7827,-5.2944],[-37.7896,-5.2106],[-37.7237,-5.0695],[-37.6773,-5.053],[-37.6399,-4.926],[-37.2516,-4.832],[-37.3249,-4.7013],[-37.4731,-4.6485],[-37.5926,-4.6252],[-37.729,-4.4968],[-37.7696,-4.4012],[-37.8875,-4.3535],[-38.1179,-4.1453],[-38.2709,-3.9462],[-38.3639,-3.8815],[-38.4662,-3.7137],[-38.4988,-3.7248],[-38.6665,-3.6744],[-38.8035,-3.5504],[-38.9209,-3.4896],[-38.9946,-3.3971],[-39.0832,-3.3932],[-39.1695,-3.3233],[-39.2522,-3.2218],[-39.4646,-3.1416],[-39.6191,-3.026],[-39.7412,-2.9854],[-39.8863,-2.8844],[-39.9994,-2.8427],[-40.018,-2.837]]]},"properties":{"name":"CE","fullName":"Ceará"}},
{"type":"Feature","geometry":{"type":"Polygon","coordinates":[[[-40.222,-17.9799],[-40.3649,-17.9225],[-40.5266,-17.8915],[-40.613,-17.9392],[-40.6255,-17.9888],[-40.7041,-18.0229],[-40.8084,-17.9523],[-40.9022,-17.987],[-40.7729,-18.1071],[-40.9041,-18.1154],[-41.0556,-18.1661],[-41.0961,-18.2551],[-41.1584,-18.3083],[-41.1739,-18.4434],[-41.0235,-18.4567],[-41.0505,-18.6337],[-40.9432,-18.6871],[-40.9165,-18.815],[-40.9635,-18.8407],[-41.1101,-18.8385],[-41.1337,-18.7956],[-41.2321,-18.7968],[-41.242,-18.8539],[-41.1264,-18.894],[-41.0384,-18.9799],[-41.0534,-19.0684],[-40.9844,-19.1002],[-40.9223,-19.2036],[-40.9073,-19.3083],[-40.9672,-19.4272],[-40.9718,-19.5048],[-41.1681,-19.6717],[-41.1904,-19.7464],[-41.1845,-19.8885],[-41.3,-19.9379],[-41.3077,-20.0125],[-41.3817,-20.1883],[-41.4113,-20.2062],[-41.7563,-20.2064],[-41.7806,-20.2921],[-41.8467,-20.329],[-41.7992,-20.4771],[-41.8745,-20.7663],[-41.7405,-20.8178],[-41.7115,-20.9806],[-41.7357,-21.1023],[-41.548,-21.1824],[-41.2409,-21.2207],[-41.2049,-21.2434],[-41.081,-21.2215],[-40.9572,-21.303],[-40.9532,-21.2372],[-40.856,-21.1276],[-40.7586,-20.8642],[-40.7238,-20.8418],[-40.5769,-20.7905],[-40.4724,-20.6542],[-40.4327,-20.642],[-40.2748,-20.33],[-40.2855,-20.2768],[-40.1974,-20.2163],[-40.131,-19.9364],[-40.0519,-19.8099],[-39.9831,-19.7389],[-39.8063,-19.631],[-39.729,-19.4654],[-39.6886,-19.3058],[-39.7499,-18.8412],[-39.7282,-18.4999],[-39.6702,-18.3487],[-39.6885,-18.3203],[-40.222,-17.9799]]]},"properties":{"name":"ES","fullName":"Espírito Santo"}},
{"type":"Feature","geometry":{"type":"Polygon","coordinates":[[[-46.1139,-12.9175],[-46.1941,-12.9562],[-46.3634,-12.9908],[-46.3658,-12.8644],[-46.4172,-12.823],[-46.4542,-12.9707],[-46.7502,-12.9687],[-46.8925,-13.0528],[-46.9535,-13.1107],[-47.0895,-13.1736],[-47.2287,-13.1944],[-47.3226,-13.2579],[-47.3773,-13.2302],[-47.4344,-13.2678],[-47.4784,-13.1847],[-47.5626,-13.1838],[-47.6175,-13.1043],[-47.6685,-13.209],[-47.6385,-13.3906],[-47.6785,-13.4673],[-47.8235,-13.3114],[-47.8885,-13.3176],[-48.0221,-13.2794],[-48.1511,-13.3061],[-48.1735,-13.1477],[-48.3074,-13.2273],[-48.4464,-13.2833],[-48.4721,-13.1423],[-48.5782,-13.1262],[-48.6379,-13.0179],[-48.7303,-12.9894],[-48.7484,-12.9172],[-48.8694,-12.804],[-48.9752,-12.9568],[-49.1186,-12.7899],[-49.2281,-12.8775],[-49.3539,-13.1026],[-49.3416,-13.2547],[-49.369,-13.2742],[-49.939,-12.9565],[-50.0784,-12.9055],[-50.183,-12.8963],[-50.3108,-12.7981],[-50.2953,-12.6841],[-50.2079,-12.5726],[-50.2119,-12.4367],[-50.3655,-12.5456],[-50.4182,-12.6242],[-50.5106,-12.8603],[-50.5255,-12.976],[-50.5765,-13.0507],[-50.6067,-13.3104],[-50.6652,-13.3757],[-50.665,-13.4419],[-50.763,-13.5296],[-50.8035,-13.6905],[-50.8713,-13.7327],[-50.841,-13.8625],[-50.8651,-13.9798],[-50.8313,-14.073],[-50.9608,-14.2489],[-50.9986,-14.4188],[-50.9624,-14.5266],[-51.0893,-14.8407],[-51.0855,-14.9173],[-51.2421,-15.035],[-51.3373,-14.9729],[-51.5355,-15.0693],[-51.5978,-15.155],[-51.6516,-15.1794],[-51.6878,-15.3084],[-51.6709,-15.3713],[-51.7042,-15.4963],[-51.7754,-15.5578],[-51.7625,-15.6452],[-51.8918,-15.8298],[-51.9463,-15.8101],[-52.0076,-15.885],[-52.2522,-15.8927],[-52.3273,-16.0682],[-52.5481,-16.1647],[-52.5458,-16.2581],[-52.6566,-16.2797],[-52.6761,-16.4119],[-52.6039,-16.4642],[-52.6353,-16.5512],[-52.7687,-16.672],[-52.7855,-16.7407],[-52.8818,-16.7757],[-52.9441,-16.8558],[-53.0136,-16.8645],[-53.072,-17.0501],[-53.1569,-17.1702],[-53.2181,-17.2989],[-53.197,-17.3809],[-53.2298,-17.4268],[-53.2507,-17.6186],[-53.2378,-17.7137],[-53.1768,-17.7554],[-53.1309,-17.9164],[-53.0696,-17.9861],[-53.0715,-18.039],[-53.1427,-18.0814],[-53.1007,-18.3097],[-53.0694,-18.3424],[-52.9489,-18.2961],[-52.7815,-18.3251],[-52.7614,-18.3709],[-52.9644,-18.5496],[-52.9138,-18.6194],[-52.8272,-18.6714],[-52.5924,-18.6894],[-52.5525,-18.6565],[-52.4486,-18.6905],[-52.3442,-18.8211],[-52.181,-18.8475],[-52.1648,-18.8762],[-51.9955,-18.973],[-51.8983,-18.9937],[-51.8707,-19.0351],[-51.6575,-19.1375],[-51.592,-19.127],[-51.42,-19.1661],[-51.0573,-19.329],[-51.0315,-19.3974],[-50.9353,-19.4672],[-50.8719,-19.4057],[-50.8166,-19.2894],[-50.6772,-19.1392],[-50.5845,-19.1369],[-50.4983,-19.0336],[-50.4998,-18.9292],[-50.3763,-18.8119],[-50.3089,-18.698],[-50.1638,-18.6639],[-50.0796,-18.6718],[-50.0161,-18.5994],[-49.8813,-18.6096],[-49.7832,-18.6409],[-49.6475,-18.5584],[-49.4858,-18.5078],[-49.4163,-18.6381],[-49.2486,-18.5222],[-49.127,-18.3829],[-49.0766,-18.4163],[-48.9363,-18.3057],[-48.8316,-18.3457],[-48.6467,-18.3434],[-48.4792,-18.3792],[-48.3145,-18.3637],[-48.2786,-18.3311],[-48.1142,-18.4261],[-47.8897,-18.4764],[-47.8087,-18.4004],[-47.6981,-18.3768],[-47.6065,-18.2466],[-47.4967,-18.1986],[-47.3573,-18.0846],[-47.2828,-18.0578],[-47.3584,-17.8868],[-47.3366,-17.737],[-47.2635,-17.62],[-47.3305,-17.5244],[-47.5025,-17.5161],[-47.528,-17.3881],[-47.4203,-17.3006],[-47.3515,-17.166],[-47.1816,-17.0635],[-47.1313,-17.01],[-47.1816,-16.9018],[-47.2497,-16.6664],[-47.444,-16.5403],[-47.4267,-16.3937],[-47.3658,-16.331],[-47.322,-16.2309],[-47.3516,-16.1315],[-47.3084,-16.0501],[-48.2787,-16.0511],[-48.2521,-15.9537],[-48.2866,-15.8427],[-48.2115,-15.7554],[-48.2404,-15.7065],[-48.1999,-15.6214],[-48.1972,-15.5005],[-47.4169,-15.4999],[-47.3741,-15.5779],[-47.322,-15.5975],[-47.3125,-15.7376],[-47.3758,-15.8803],[-47.3682,-16.0015],[-47.3086,-16.0355],[-47.2279,-16.0153],[-47.1507,-15.9346],[-47.0523,-15.9375],[-46.8244,-15.8853],[-46.8127,-15.7868],[-46.8544,-15.6199],[-46.9487,-15.5541],[-46.93,-15.4426],[-46.849,-15.3727],[-46.8365,-15.3221],[-46.9272,-15.2546],[-46.9369,-15.2046],[-46.8887,-15.1112],[-46.9183,-15.0494],[-46.8565,-15.0098],[-46.7814,-15.0189],[-46.625,-15.0891],[-46.5022,-15.0518],[-46.5304,-15.0048],[-46.5584,-14.8206],[-46.5438,-14.7526],[-46.4684,-14.7084],[-46.3218,-14.8141],[-46.2864,-14.9277],[-46.176,-14.9486],[-46.0877,-14.9359],[-46.037,-14.8736],[-46.0076,-14.7928],[-46.0006,-14.6012],[-45.9805,-14.5299],[-45.9984,-14.4289],[-45.9272,-14.4099],[-45.9628,-14.2855],[-46.0205,-14.26],[-46.236,-14.1068],[-46.2123,-14.0219],[-46.2677,-13.9433],[-46.2283,-13.7741],[-46.2555,-13.6935],[-46.1615,-13.5905],[-46.2409,-13.5251],[-46.2139,-13.4003],[-46.1332,-13.3752],[-46.048,-13.3088],[-46.0634,-13.2609],[-46.279,-13.3475],[-46.3297,-13.2524],[-46.2945,-13.1309],[-46.3222,-13.0979],[-46.2729,-13.0145],[-46.1254,-12.961],[-46.1139,-12.9175]]]},"properties":{"name":"GO","fullName":"Goiás"}},
{"type":"Feature","geometry":{"type":"Polygon","coordinates":[[[-47.031,-8.9855],[-47.0574,-9.0526],[-46.9426,-9.0641],[-46.9259,-9.1345],[-46.8603,-9.1471],[-46.8192,-9.2112],[-46.8125,-9.3055],[-46.7582,-9.3808],[-46.6655,-9.3915],[-46.6272,-9.4653],[-46.5728,-9.4774],[-46.5789,-9.5837],[-46.6424,-9.7411],[-46.5117,-9.7986],[-46.4704,-9.8976],[-46.4772,-9.9879],[-46.4435,-10.0772],[-46.3271,-10.1833],[-46.2017,-10.1735],[-46.1642,-10.2125],[-46.0228,-10.183],[-46.0173,-10.24],[-45.946,-10.2582],[-45.9452,-10.196],[-45.8781,-10.1099],[-45.8419,-9.9411],[-45.864,-9.8611],[-45.821,-9.7727],[-45.8315,-9.5364],[-45.7834,-9.4797],[-45.7974,-9.4168],[-45.9066,-9.2976],[-45.8982,-9.2093],[-45.943,-9.0149],[-45.9939,-8.9265],[-45.938,-8.7845],[-45.8395,-8.7149],[-45.8151,-8.6328],[-45.738,-8.5008],[-45.7419,-8.4507],[-45.6871,-8.3552],[-45.6611,-8.2496],[-45.581,-8.1557],[-45.5759,-8.0287],[-45.5204,-7.8877],[-45.4685,-7.6887],[-45.3394,-7.5799],[-45.2149,-7.5656],[-45.155,-7.5131],[-45.0444,-7.5108],[-44.924,-7.4699],[-44.8163,-7.3608],[-44.6876,-7.3941],[-44.5637,-7.2271],[-44.3796,-7.1186],[-44.3058,-7.1168],[-44.1731,-6.9239],[-44.1605,-6.8724],[-43.9608,-6.7415],[-43.9281,-6.7711],[-43.795,-6.7025],[-43.6371,-6.7192],[-43.4569,-6.8459],[-43.2783,-6.7962],[-43.2443,-6.766],[-43.0008,-6.7541],[-42.9194,-6.6699],[-42.8714,-6.5116],[-42.8774,-6.4175],[-42.8466,-6.2821],[-42.874,-6.2277],[-42.9682,-6.1779],[-43.0496,-6.0994],[-43.099,-5.9007],[-43.1009,-5.7651],[-43.0772,-5.7312],[-43.0803,-5.5995],[-43.0342,-5.5919],[-42.9129,-5.3985],[-42.8259,-5.3466],[-42.7999,-5.199],[-42.8194,-5.09],[-42.9481,-4.7665],[-42.9542,-4.6891],[-42.8675,-4.5632],[-42.8716,-4.4282],[-42.9629,-4.376],[-42.9888,-4.2337],[-42.8625,-4.0925],[-42.8233,-3.9918],[-42.7258,-3.9096],[-42.6685,-3.729],[-42.6754,-3.6752],[-42.5062,-3.4785],[-42.3986,-3.4723],[-42.3304,-3.4335],[-42.2097,-3.4359],[-42.1518,-3.3871],[-42.1154,-3.262],[-41.9998,-3.2407],[-41.9256,-3.1151],[-41.8239,-3.0241],[-41.7964,-2.9662],[-41.8651,-2.8745],[-41.8137,-2.739],[-41.9741,-2.7226],[-42.064,-2.6858],[-42.4338,-2.7065],[-42.544,-2.6869],[-42.7442,-2.5574],[-42.7928,-2.5597],[-43.1848,-2.3732],[-43.3797,-2.3248],[-43.5011,-2.3665],[-43.5653,-2.2466],[-43.6148,-2.219],[-43.7282,-2.2876],[-43.7607,-2.3546],[-43.8268,-2.3609],[-43.9246,-2.5105],[-44.0676,-2.4038],[-44.2268,-2.4777],[-44.3256,-2.4997],[-44.3989,-2.415],[-44.3599,-2.3173],[-44.4094,-2.2294],[-44.4992,-2.1414],[-44.4875,-1.9449],[-44.5667,-1.8521],[-44.5985,-1.8547],[-44.6138,-1.8301],[-44.6466,-1.7643],[-44.7265,-1.801],[-44.7561,-1.7281],[-44.7799,-1.6753],[-44.6768,-1.6504],[-44.6978,-1.5932],[-44.9076,-1.576],[-44.8432,-1.4836],[-44.9464,-1.4915],[-45.0638,-1.4806],[-45.0702,-1.4531],[-45.0687,-1.466],[-45.0915,-1.5031],[-45.0969,-1.4682],[-45.1035,-1.4263],[-45.0927,-1.3691],[-45.1114,-1.3811],[-45.1065,-1.394],[-45.1037,-1.4022],[-45.1015,-1.4086],[-45.1297,-1.4591],[-45.1801,-1.5234],[-45.3138,-1.6084],[-45.3715,-1.6852],[-45.3646,-1.6744],[-45.3264,-1.506],[-45.3002,-1.4222],[-45.3342,-1.3569],[-45.3388,-1.3498],[-45.4035,-1.4492],[-45.4189,-1.4711],[-45.4808,-1.5334],[-45.5151,-1.4061],[-45.5576,-1.3289],[-45.5543,-1.3179],[-45.6136,-1.2781],[-45.6376,-1.3719],[-45.7282,-1.3407],[-45.6948,-1.2676],[-45.738,-1.237],[-45.7796,-1.2646],[-45.8144,-1.2547],[-45.862,-1.2705],[-45.8803,-1.1337],[-45.9418,-1.1382],[-45.9647,-1.0463],[-46.1037,-1.2017],[-46.1625,-1.278],[-46.1057,-1.3321],[-46.1391,-1.4441],[-46.1762,-1.475],[-46.1316,-1.5785],[-46.1532,-1.6756],[-46.2247,-1.7257],[-46.2907,-1.7231],[-46.3162,-1.7947],[-46.2289,-1.8003],[-46.2182,-1.9129],[-46.273,-2.0584],[-46.2914,-2.1642],[-46.4312,-2.298],[-46.4335,-2.5145],[-46.5046,-2.6146],[-46.6215,-2.6442],[-46.6677,-2.7337],[-46.5986,-2.7953],[-46.6362,-2.8508],[-46.6517,-2.9962],[-46.746,-3.1785],[-46.807,-3.2415],[-46.848,-3.3353],[-46.9485,-3.4065],[-46.97,-3.5145],[-47.0374,-3.5625],[-47.0451,-3.7076],[-47.0877,-3.8551],[-47.1347,-3.8814],[-47.2194,-3.9956],[-47.3185,-4.0466],[-47.3792,-4.2201],[-47.473,-4.3141],[-47.4757,-4.3546],[-47.581,-4.5196],[-47.6795,-4.6082],[-47.7895,-4.5851],[-47.8157,-4.6144],[-48.1942,-4.9106],[-48.7547,-5.3488],[-48.679,-5.3055],[-48.6057,-5.3361],[-48.519,-5.1918],[-48.3635,-5.168],[-48.1781,-5.2604],[-48.0788,-5.2747],[-48.014,-5.2379],[-47.8851,-5.2603],[-47.8271,-5.3862],[-47.7418,-5.3809],[-47.6182,-5.4594],[-47.5549,-5.4654],[-47.4828,-5.5645],[-47.4929,-5.7302],[-47.4419,-5.8304],[-47.4475,-5.9925],[-47.4162,-6.1774],[-47.3784,-6.2705],[-47.4982,-6.6708],[-47.5066,-6.8716],[-47.5459,-7.0144],[-47.6599,-7.151],[-47.7364,-7.2164],[-47.6513,-7.2999],[-47.5887,-7.2637],[-47.4994,-7.2935],[-47.4975,-7.4788],[-47.4273,-7.5254],[-47.2609,-7.7479],[-47.2341,-7.8235],[-47.1424,-7.8944],[-47.0431,-8.0532],[-46.997,-8.0668],[-46.8822,-7.9637],[-46.7997,-7.955],[-46.708,-7.9095],[-46.6042,-7.8958],[-46.4917,-7.9813],[-46.47,-8.0844],[-46.4871,-8.1995],[-46.5442,-8.3189],[-46.6348,-8.3189],[-46.782,-8.3677],[-46.8467,-8.5327],[-46.9123,-8.5915],[-46.8865,-8.6861],[-46.9309,-8.7264],[-46.9179,-8.8433],[-46.9921,-8.879],[-47.031,-8.9855]]]},"properties":{"name":"MA","fullName":"Maranhão"}},
{"type":"Feature","geometry":{"type":"Polygon","coordinates":[[[-46.037,-14.8736],[-46.0877,-14.9359],[-46.176,-14.9486],[-46.2864,-14.9277],[-46.3218,-14.8141],[-46.4684,-14.7084],[-46.5438,-14.7526],[-46.5584,-14.8206],[-46.5304,-15.0048],[-46.5022,-15.0518],[-46.625,-15.0891],[-46.7814,-15.0189],[-46.8565,-15.0098],[-46.9183,-15.0494],[-46.8887,-15.1112],[-46.9369,-15.2046],[-46.9272,-15.2546],[-46.8365,-15.3221],[-46.849,-15.3727],[-46.93,-15.4426],[-46.9487,-15.5541],[-46.8544,-15.6199],[-46.8127,-15.7868],[-46.8244,-15.8853],[-47.0523,-15.9375],[-47.1507,-15.9346],[-47.2279,-16.0153],[-47.3086,-16.0355],[-47.3084,-16.0501],[-47.3516,-16.1315],[-47.322,-16.2309],[-47.3658,-16.331],[-47.4267,-16.3937],[-47.444,-16.5403],[-47.2497,-16.6664],[-47.1816,-16.9018],[-47.1313,-17.01],[-47.1816,-17.0635],[-47.3515,-17.166],[-47.4203,-17.3006],[-47.528,-17.3881],[-47.5025,-17.5161],[-47.3305,-17.5244],[-47.2635,-17.62],[-47.3366,-17.737],[-47.3584,-17.8868],[-47.2828,-18.0578],[-47.3573,-18.0846],[-47.4967,-18.1986],[-47.6065,-18.2466],[-47.6981,-18.3768],[-47.8087,-18.4004],[-47.8897,-18.4764],[-48.1142,-18.4261],[-48.2786,-18.3311],[-48.3145,-18.3637],[-48.4792,-18.3792],[-48.6467,-18.3434],[-48.8316,-18.3457],[-48.9363,-18.3057],[-49.0766,-18.4163],[-49.127,-18.3829],[-49.2486,-18.5222],[-49.4163,-18.6381],[-49.4858,-18.5078],[-49.6475,-18.5584],[-49.7832,-18.6409],[-49.8813,-18.6096],[-50.0161,-18.5994],[-50.0796,-18.6718],[-50.1638,-18.6639],[-50.3089,-18.698],[-50.3763,-18.8119],[-50.4998,-18.9292],[-50.4983,-19.0336],[-50.5845,-19.1369],[-50.6772,-19.1392],[-50.8166,-19.2894],[-50.8719,-19.4057],[-50.9353,-19.4672],[-50.9237,-19.5582],[-50.9871,-19.589],[-51.0449,-19.7371],[-50.999,-19.9059],[-51.0199,-19.9619],[-51,-20.0849],[-50.966,-20.0341],[-50.7831,-19.9368],[-50.6564,-19.9049],[-50.5755,-19.8156],[-50.4714,-19.7792],[-50.3523,-19.8641],[-50.1023,-19.8754],[-50.0117,-19.9262],[-49.8908,-19.9432],[-49.782,-19.924],[-49.6407,-19.9314],[-49.551,-19.9054],[-49.4399,-19.9803],[-49.2971,-19.9601],[-49.3081,-20.1015],[-49.259,-20.2578],[-49.1791,-20.3097],[-49.1203,-20.2688],[-49.0674,-20.154],[-48.9918,-20.1649],[-48.9613,-20.2628],[-48.9684,-20.3933],[-48.8671,-20.3982],[-48.885,-20.2687],[-48.8552,-20.1816],[-48.7291,-20.1498],[-48.6464,-20.1661],[-48.5542,-20.1298],[-48.3193,-20.113],[-48.2029,-20.045],[-48.1784,-20.0953],[-48.07,-20.1461],[-48.0029,-20.1042],[-47.8939,-20.1234],[-47.8593,-19.9925],[-47.7038,-19.9794],[-47.6355,-20.0479],[-47.5806,-19.9954],[-47.4659,-19.9637],[-47.4027,-20.0823],[-47.3092,-20.124],[-47.2307,-20.2186],[-47.2978,-20.348],[-47.2913,-20.4488],[-47.1539,-20.5192],[-47.0969,-20.6439],[-47.1183,-20.7068],[-47.1858,-20.7306],[-47.2396,-20.8848],[-47.1433,-20.9819],[-47.1127,-21.1044],[-47.1183,-21.1853],[-46.9976,-21.3503],[-46.9992,-21.4205],[-46.908,-21.4207],[-46.7759,-21.3623],[-46.6471,-21.3925],[-46.6023,-21.4433],[-46.5198,-21.448],[-46.5171,-21.6114],[-46.6905,-21.8365],[-46.6178,-21.9944],[-46.685,-22.0369],[-46.6126,-22.1498],[-46.6703,-22.1838],[-46.7175,-22.3164],[-46.6311,-22.4353],[-46.4541,-22.5219],[-46.3959,-22.6455],[-46.4523,-22.7271],[-46.3348,-22.7597],[-46.3764,-22.8273],[-46.3448,-22.9042],[-46.1549,-22.8637],[-46.008,-22.8887],[-45.9221,-22.8236],[-45.7657,-22.8419],[-45.7164,-22.7795],[-45.6935,-22.6512],[-45.5763,-22.6019],[-45.5245,-22.6464],[-45.4713,-22.59],[-45.41,-22.6512],[-45.1641,-22.5374],[-45.0602,-22.4721],[-44.8985,-22.4523],[-44.8088,-22.4048],[-44.7235,-22.3595],[-44.5431,-22.3313],[-44.4323,-22.2511],[-44.3836,-22.267],[-44.2129,-22.2458],[-44.0997,-22.1728],[-43.9879,-22.1497],[-43.777,-22.0663],[-43.462,-22.0722],[-43.3201,-22.0064],[-43.2362,-22.0128],[-43.1537,-22.0775],[-43.073,-22.0934],[-42.8821,-21.9596],[-42.3561,-21.7414],[-42.2711,-21.7147],[-42.3458,-21.5825],[-42.2523,-21.4898],[-42.2922,-21.4595],[-42.2295,-21.3661],[-42.2286,-21.2839],[-42.164,-21.101],[-42.0845,-21.0224],[-42.138,-20.9601],[-41.9669,-20.9163],[-41.9249,-20.8011],[-41.8745,-20.7663],[-41.7992,-20.4771],[-41.8467,-20.329],[-41.7806,-20.2921],[-41.7563,-20.2064],[-41.4113,-20.2062],[-41.3817,-20.1883],[-41.3077,-20.0125],[-41.3,-19.9379],[-41.1845,-19.8885],[-41.1904,-19.7464],[-41.1681,-19.6717],[-40.9718,-19.5048],[-40.9672,-19.4272],[-40.9073,-19.3083],[-40.9223,-19.2036],[-40.9844,-19.1002],[-41.0534,-19.0684],[-41.0384,-18.9799],[-41.1264,-18.894],[-41.242,-18.8539],[-41.2321,-18.7968],[-41.1337,-18.7956],[-41.1101,-18.8385],[-40.9635,-18.8407],[-40.9165,-18.815],[-40.9432,-18.6871],[-41.0505,-18.6337],[-41.0235,-18.4567],[-41.1739,-18.4434],[-41.1584,-18.3083],[-41.0961,-18.2551],[-41.0556,-18.1661],[-40.9041,-18.1154],[-40.7729,-18.1071],[-40.9022,-17.987],[-40.8084,-17.9523],[-40.7041,-18.0229],[-40.6255,-17.9888],[-40.613,-17.9392],[-40.5266,-17.8915],[-40.3649,-17.9225],[-40.222,-17.9799],[-40.2631,-17.9215],[-40.1747,-17.8522],[-40.2235,-17.7336],[-40.28,-17.7223],[-40.3218,-17.644],[-40.4603,-17.5682],[-40.5203,-17.4469],[-40.5993,-17.3899],[-40.5535,-17.1886],[-40.5783,-17.1483],[-40.5451,-16.9838],[-40.4908,-16.884],[-40.3661,-16.8737],[-40.2812,-16.9007],[-40.2574,-16.8061],[-40.3354,-16.7792],[-40.2751,-16.5736],[-40.1595,-16.5798],[-40.1708,-16.5237],[-40.0244,-16.3564],[-39.9601,-16.3214],[-39.8564,-16.1134],[-39.9218,-16.0282],[-40.004,-16.0014],[-40.0864,-15.9131],[-40.1489,-15.9049],[-40.2184,-15.8353],[-40.4246,-15.8052],[-40.4602,-15.7533],[-40.5617,-15.8028],[-40.629,-15.7152],[-40.699,-15.6682],[-40.8551,-15.6867],[-40.9619,-15.6484],[-41.0068,-15.7134],[-41.1691,-15.7601],[-41.3308,-15.7442],[-41.356,-15.4998],[-41.8003,-15.1006],[-41.953,-15.1752],[-42.0957,-15.182],[-42.1529,-15.0989],[-42.2644,-15.1247],[-42.4425,-15.0602],[-42.4364,-15.0223],[-42.6249,-14.944],[-42.7547,-14.846],[-42.9055,-14.7606],[-42.9523,-14.708],[-43.1759,-14.6501],[-43.3108,-14.6693],[-43.4609,-14.7458],[-43.5388,-14.8053],[-43.5734,-14.7647],[-43.7195,-14.7291],[-43.8831,-14.6528],[-43.8735,-14.5201],[-43.819,-14.3889],[-43.8357,-14.3107],[-44.0341,-14.2884],[-44.2402,-14.2403],[-44.5568,-14.3366],[-44.8134,-14.5042],[-44.8761,-14.5928],[-45.0391,-14.6798],[-45.095,-14.7524],[-45.1658,-14.735],[-45.4896,-14.9603],[-45.5657,-14.9444],[-45.6743,-15.08],[-45.7512,-15.1218],[-45.918,-15.1331],[-46.0276,-15.2009],[-46.0433,-15.1177],[-45.9751,-15.0385],[-45.9657,-14.9652],[-46.037,-14.8736]]]},"properties":{"name":"MG","fullName":"Minas Gerais"}},
{"type":"Feature","geometry":{"type":"Polygon","coordinates":[[[-53.0715,-18.039],[-53.1732,-18.0416],[-53.2985,-17.9951],[-53.4673,-18.0344],[-53.6607,-17.9771],[-53.7737,-18.0003],[-53.8718,-17.9214],[-53.938,-17.9196],[-53.9407,-17.8398],[-53.8554,-17.7023],[-53.7056,-17.6619],[-53.6796,-17.2531],[-53.7586,-17.2427],[-53.8196,-17.2942],[-53.9517,-17.4589],[-54.0371,-17.486],[-54.0842,-17.6186],[-54.1783,-17.6024],[-54.3351,-17.6613],[-54.4206,-17.5373],[-54.5032,-17.4797],[-54.7484,-17.5224],[-54.7583,-17.5653],[-54.8603,-17.6234],[-55.1267,-17.6523],[-55.2992,-17.5407],[-55.4322,-17.5113],[-55.5743,-17.4342],[-55.5824,-17.3786],[-55.6747,-17.3399],[-55.7839,-17.3296],[-55.9258,-17.2574],[-56.0155,-17.1898],[-56.1126,-17.1668],[-56.2508,-17.2186],[-56.2986,-17.2756],[-56.4428,-17.3303],[-56.4896,-17.2979],[-56.5954,-17.3321],[-56.7564,-17.3263],[-56.8754,-17.5325],[-56.9663,-17.571],[-56.9877,-17.6589],[-57.1151,-17.7806],[-57.2266,-17.7823],[-57.2643,-17.8199],[-57.477,-17.8586],[-57.6032,-17.8034],[-57.6226,-17.7359],[-57.6838,-17.7152],[-57.7115,-17.5437],[-57.7518,-17.5639],[-57.7825,-17.6384],[-57.7298,-17.7184],[-57.7199,-17.8274],[-57.5995,-18.0459],[-57.5742,-18.1314],[-57.5044,-18.1998],[-57.5571,-18.2399],[-57.766,-18.8988],[-57.7191,-18.8985],[-57.7088,-19.0311],[-57.7835,-19.033],[-58.1312,-19.758],[-57.8587,-19.9699],[-57.8999,-20.0386],[-57.9597,-20.0219],[-58.0883,-20.1073],[-58.1217,-20.1946],[-58.0894,-20.261],[-58.0836,-20.3721],[-57.9947,-20.4417],[-58.0122,-20.6125],[-57.9114,-20.6705],[-57.8746,-20.7499],[-57.8684,-20.8513],[-57.9214,-20.8872],[-57.8166,-20.9795],[-57.8671,-21.0411],[-57.8528,-21.3179],[-57.9662,-21.525],[-57.9127,-21.5963],[-57.8834,-21.6928],[-57.9163,-21.8732],[-58.0052,-22.0499],[-57.9249,-22.1211],[-57.7455,-22.1383],[-57.6883,-22.088],[-57.6124,-22.0945],[-57.5794,-22.1735],[-57.4165,-22.1963],[-57.3225,-22.2423],[-57.2016,-22.2116],[-57.0842,-22.2492],[-57.0319,-22.2337],[-56.8777,-22.2529],[-56.8412,-22.302],[-56.6929,-22.2275],[-56.635,-22.2624],[-56.5681,-22.2069],[-56.5163,-22.108],[-56.3974,-22.0781],[-56.3153,-22.2175],[-56.2094,-22.2764],[-55.9677,-22.2897],[-55.8524,-22.2815],[-55.8023,-22.3722],[-55.7441,-22.3889],[-55.7477,-22.5001],[-55.6241,-22.6278],[-55.6151,-22.7344],[-55.66,-22.8818],[-55.5949,-23.1192],[-55.5233,-23.1965],[-55.5558,-23.3185],[-55.5056,-23.3764],[-55.546,-23.4485],[-55.5295,-23.6304],[-55.4723,-23.6497],[-55.4305,-23.7896],[-55.4429,-23.9167],[-55.3366,-23.9935],[-55.1182,-23.9761],[-55.06,-23.9921],[-54.9396,-23.9633],[-54.9076,-23.9097],[-54.7916,-23.8664],[-54.7051,-23.8628],[-54.6708,-23.8117],[-54.4294,-23.9139],[-54.4139,-23.9596],[-54.2871,-24.0695],[-54.1292,-23.9816],[-54.0794,-23.8885],[-54.0752,-23.764],[-53.9823,-23.4595],[-53.7706,-23.3717],[-53.6361,-23.1246],[-53.6069,-22.9509],[-53.5342,-22.8821],[-53.3608,-22.7814],[-53.1804,-22.7132],[-53.1047,-22.6215],[-52.9981,-22.4927],[-52.8542,-22.4386],[-52.7978,-22.3778],[-52.5787,-22.2515],[-52.4862,-22.2147],[-52.3449,-22.0615],[-52.3186,-21.9719],[-52.1901,-21.8457],[-52.1608,-21.7703],[-52.1024,-21.7448],[-52.0493,-21.6609],[-52.1028,-21.5586],[-51.9977,-21.5152],[-51.9282,-21.4553],[-51.8672,-21.3512],[-51.848,-21.2662],[-51.8785,-21.1477],[-51.7892,-21.1016],[-51.7132,-20.971],[-51.6262,-20.9459],[-51.6344,-20.7544],[-51.5957,-20.6483],[-51.4997,-20.5677],[-51.3504,-20.3627],[-51.2952,-20.328],[-51.1669,-20.3059],[-51.0687,-20.2496],[-51,-20.0849],[-51.0199,-19.9619],[-50.999,-19.9059],[-51.0449,-19.7371],[-50.9871,-19.589],[-50.9237,-19.5582],[-50.9353,-19.4672],[-51.0315,-19.3974],[-51.0573,-19.329],[-51.42,-19.1661],[-51.592,-19.127],[-51.6575,-19.1375],[-51.8707,-19.0351],[-51.8983,-18.9937],[-51.9955,-18.973],[-52.1648,-18.8762],[-52.181,-18.8475],[-52.3442,-18.8211],[-52.4486,-18.6905],[-52.5525,-18.6565],[-52.5924,-18.6894],[-52.8272,-18.6714],[-52.9138,-18.6194],[-52.9644,-18.5496],[-52.7614,-18.3709],[-52.7815,-18.3251],[-52.9489,-18.2961],[-53.0694,-18.3424],[-53.1007,-18.3097],[-53.1427,-18.0814],[-53.0715,-18.039]]]},"properties":{"name":"MS","fullName":"Mato Grosso do Sul"}},
{"type":"Feature","geometry":{"type":"Polygon","coordinates":[[[-61.5824,-8.7983],[-61.5132,-8.8366],[-61.4681,-8.9171],[-61.5544,-9.0899],[-61.5231,-9.1786],[-61.6248,-9.3391],[-61.5523,-9.3872],[-61.581,-9.4585],[-61.5075,-9.5401],[-61.4771,-9.6269],[-61.5468,-9.7872],[-61.5074,-9.8607],[-61.5307,-9.9895],[-61.5996,-10.1544],[-61.5332,-10.3315],[-61.4612,-10.4195],[-61.4757,-10.6073],[-61.4983,-10.6995],[-61.4797,-10.7852],[-61.5216,-10.8448],[-61.5295,-10.9786],[-61.4285,-10.9871],[-60.4595,-10.9895],[-60.391,-11.0934],[-60.1587,-11.0953],[-60.0189,-11.1287],[-59.9272,-11.31],[-59.9201,-11.3976],[-60.0902,-11.5545],[-60.1211,-11.7117],[-60.0983,-11.8452],[-59.9846,-11.9139],[-59.9788,-12.0291],[-59.9007,-12.115],[-59.8858,-12.2451],[-59.7924,-12.3454],[-59.8679,-12.482],[-59.9026,-12.4721],[-60.0261,-12.5612],[-60.0885,-12.7401],[-60.0786,-12.8807],[-60.1166,-12.9591],[-60.1828,-12.9672],[-60.2671,-13.0769],[-60.3608,-13.2993],[-60.3874,-13.4543],[-60.6317,-13.5713],[-60.7078,-13.6925],[-60.6454,-13.7382],[-60.4675,-13.8123],[-60.4445,-13.9315],[-60.3888,-13.9782],[-60.4783,-14.0957],[-60.4524,-14.3135],[-60.3382,-14.5109],[-60.3211,-14.6056],[-60.2715,-14.6198],[-60.2437,-15.0963],[-60.5004,-15.0958],[-60.5643,-15.1082],[-60.2379,-15.4734],[-60.171,-16.2652],[-59.4694,-16.279],[-58.4297,-16.3207],[-58.3384,-16.2734],[-58.3064,-16.3697],[-58.3555,-16.427],[-58.3432,-16.5173],[-58.4354,-16.5919],[-58.4625,-16.6517],[-58.468,-16.9407],[-58.4348,-17.007],[-58.3949,-17.1837],[-58.2768,-17.2998],[-58.254,-17.3521],[-58.0427,-17.4922],[-57.9799,-17.5101],[-57.883,-17.4492],[-57.7518,-17.5639],[-57.7115,-17.5437],[-57.6838,-17.7152],[-57.6226,-17.7359],[-57.6032,-17.8034],[-57.477,-17.8586],[-57.2643,-17.8199],[-57.2266,-17.7823],[-57.1151,-17.7806],[-56.9877,-17.6589],[-56.9663,-17.571],[-56.8754,-17.5325],[-56.7564,-17.3263],[-56.5954,-17.3321],[-56.4896,-17.2979],[-56.4428,-17.3303],[-56.2986,-17.2756],[-56.2508,-17.2186],[-56.1126,-17.1668],[-56.0155,-17.1898],[-55.9258,-17.2574],[-55.7839,-17.3296],[-55.6747,-17.3399],[-55.5824,-17.3786],[-55.5743,-17.4342],[-55.4322,-17.5113],[-55.2992,-17.5407],[-55.1267,-17.6523],[-54.8603,-17.6234],[-54.7583,-17.5653],[-54.7484,-17.5224],[-54.5032,-17.4797],[-54.4206,-17.5373],[-54.3351,-17.6613],[-54.1783,-17.6024],[-54.0842,-17.6186],[-54.0371,-17.486],[-53.9517,-17.4589],[-53.8196,-17.2942],[-53.7586,-17.2427],[-53.6796,-17.2531],[-53.7056,-17.6619],[-53.8554,-17.7023],[-53.9407,-17.8398],[-53.938,-17.9196],[-53.8718,-17.9214],[-53.7737,-18.0003],[-53.6607,-17.9771],[-53.4673,-18.0344],[-53.2985,-17.9951],[-53.1732,-18.0416],[-53.0715,-18.039],[-53.0696,-17.9861],[-53.1309,-17.9164],[-53.1768,-17.7554],[-53.2378,-17.7137],[-53.2507,-17.6186],[-53.2298,-17.4268],[-53.197,-17.3809],[-53.2181,-17.2989],[-53.1569,-17.1702],[-53.072,-17.0501],[-53.0136,-16.8645],[-52.9441,-16.8558],[-52.8818,-16.7757],[-52.7855,-16.7407],[-52.7687,-16.672],[-52.6353,-16.5512],[-52.6039,-16.4642],[-52.6761,-16.4119],[-52.6566,-16.2797],[-52.5458,-16.2581],[-52.5481,-16.1647],[-52.3273,-16.0682],[-52.2522,-15.8927],[-52.0076,-15.885],[-51.9463,-15.8101],[-51.8918,-15.8298],[-51.7625,-15.6452],[-51.7754,-15.5578],[-51.7042,-15.4963],[-51.6709,-15.3713],[-51.6878,-15.3084],[-51.6516,-15.1794],[-51.5978,-15.155],[-51.5355,-15.0693],[-51.3373,-14.9729],[-51.2421,-15.035],[-51.0855,-14.9173],[-51.0893,-14.8407],[-50.9624,-14.5266],[-50.9986,-14.4188],[-50.9608,-14.2489],[-50.8313,-14.073],[-50.8651,-13.9798],[-50.841,-13.8625],[-50.8713,-13.7327],[-50.8035,-13.6905],[-50.763,-13.5296],[-50.665,-13.4419],[-50.6652,-13.3757],[-50.6067,-13.3104],[-50.5765,-13.0507],[-50.5255,-12.976],[-50.5106,-12.8603],[-50.613,-12.818],[-50.6228,-12.7339],[-50.706,-12.6093],[-50.6228,-12.4534],[-50.6782,-12.2184],[-50.6672,-12.0641],[-50.6825,-11.9941],[-50.6388,-11.8842],[-50.6858,-11.8586],[-50.7211,-11.7313],[-50.6631,-11.6721],[-50.6645,-11.5848],[-50.7397,-11.5382],[-50.7416,-11.4545],[-50.654,-11.218],[-50.6586,-11.1304],[-50.609,-11.067],[-50.6325,-10.9355],[-50.6215,-10.839],[-50.5701,-10.7521],[-50.603,-10.6605],[-50.5193,-10.5621],[-50.5156,-10.5047],[-50.4227,-10.3302],[-50.3819,-10.2213],[-50.3917,-10.1336],[-50.312,-10.0453],[-50.2243,-9.8408],[-50.8424,-9.8004],[-51.304,-9.7719],[-51.9517,-9.728],[-52.6195,-9.6818],[-53.588,-9.6107],[-54.1061,-9.5715],[-54.9951,-9.505],[-55.7916,-9.4403],[-56.6714,-9.367],[-56.7718,-9.3906],[-56.8196,-9.246],[-56.995,-9.2335],[-57.0593,-9.1787],[-57.0387,-9.0979],[-57.0941,-9.0167],[-57.1923,-8.9297],[-57.42,-8.8492],[-57.4156,-8.7955],[-57.5299,-8.7478],[-57.5924,-8.7561],[-57.6371,-8.5132],[-57.6811,-8.4327],[-57.6788,-8.3178],[-57.6428,-8.2133],[-57.7041,-8.1676],[-57.7279,-8.0938],[-57.8283,-7.9725],[-57.8345,-7.8824],[-57.8733,-7.8008],[-57.8976,-7.6756],[-57.939,-7.6528],[-57.9721,-7.5342],[-58.0585,-7.4],[-58.1364,-7.3561],[-58.2125,-7.4581],[-58.2016,-7.6205],[-58.2805,-7.7092],[-58.2943,-7.7719],[-58.3824,-7.8387],[-58.3729,-7.9068],[-58.2911,-8.0739],[-58.3221,-8.1696],[-58.318,-8.3298],[-58.4167,-8.4919],[-58.3907,-8.5919],[-58.4369,-8.703],[-58.3949,-8.7798],[-58.4998,-8.8024],[-59.1267,-8.803],[-59.7044,-8.8013],[-60.4195,-8.7962],[-60.8483,-8.7978],[-61.5824,-8.7983]]]},"properties":{"name":"MT","fullName":"Mato Grosso"}},
{"type":"Feature","geometry":{"type":"Polygon","coordinates":[[[-58.1364,-7.3561],[-58.0585,-7.4],[-57.9721,-7.5342],[-57.939,-7.6528],[-57.8976,-7.6756],[-57.8733,-7.8008],[-57.8345,-7.8824],[-57.8283,-7.9725],[-57.7279,-8.0938],[-57.7041,-8.1676],[-57.6428,-8.2133],[-57.6788,-8.3178],[-57.6811,-8.4327],[-57.6371,-8.5132],[-57.5924,-8.7561],[-57.5299,-8.7478],[-57.4156,-8.7955],[-57.42,-8.8492],[-57.1923,-8.9297],[-57.0941,-9.0167],[-57.0387,-9.0979],[-57.0593,-9.1787],[-56.995,-9.2335],[-56.8196,-9.246],[-56.7718,-9.3906],[-56.6714,-9.367],[-55.7916,-9.4403],[-54.9951,-9.505],[-54.1061,-9.5715],[-53.588,-9.6107],[-52.6195,-9.6818],[-51.9517,-9.728],[-51.304,-9.7719],[-50.8424,-9.8004],[-50.2243,-9.8408],[-50.0891,-9.5453],[-50.1049,-9.475],[-50.0503,-9.3127],[-49.9072,-9.1734],[-49.8421,-9.0269],[-49.6839,-8.8561],[-49.592,-8.8391],[-49.4094,-8.5796],[-49.349,-8.418],[-49.2829,-8.3792],[-49.2154,-8.1938],[-49.1623,-7.9001],[-49.1603,-7.791],[-49.3412,-7.6569],[-49.3814,-7.5663],[-49.3775,-7.4961],[-49.231,-7.3254],[-49.1848,-7.2348],[-49.209,-6.925],[-49.0184,-6.7838],[-48.8137,-6.7514],[-48.6515,-6.6396],[-48.6639,-6.5702],[-48.6127,-6.4534],[-48.4998,-6.3506],[-48.4116,-6.3057],[-48.436,-6.193],[-48.2827,-6.0812],[-48.321,-5.9851],[-48.2312,-5.9458],[-48.2885,-5.8426],[-48.2721,-5.7251],[-48.1739,-5.7088],[-48.1377,-5.6023],[-48.3003,-5.5226],[-48.3931,-5.3938],[-48.5103,-5.4293],[-48.6287,-5.4097],[-48.7547,-5.3488],[-48.1942,-4.9106],[-47.8157,-4.6144],[-47.7895,-4.5851],[-47.6795,-4.6082],[-47.581,-4.5196],[-47.4757,-4.3546],[-47.473,-4.3141],[-47.3792,-4.2201],[-47.3185,-4.0466],[-47.2194,-3.9956],[-47.1347,-3.8814],[-47.0877,-3.8551],[-47.0451,-3.7076],[-47.0374,-3.5625],[-46.97,-3.5145],[-46.9485,-3.4065],[-46.848,-3.3353],[-46.807,-3.2415],[-46.746,-3.1785],[-46.6517,-2.9962],[-46.6362,-2.8508],[-46.5986,-2.7953],[-46.6677,-2.7337],[-46.6215,-2.6442],[-46.5046,-2.6146],[-46.4335,-2.5145],[-46.4312,-2.298],[-46.2914,-2.1642],[-46.273,-2.0584],[-46.2182,-1.9129],[-46.2289,-1.8003],[-46.3162,-1.7947],[-46.2907,-1.7231],[-46.2247,-1.7257],[-46.1532,-1.6756],[-46.1316,-1.5785],[-46.1762,-1.475],[-46.1391,-1.4441],[-46.1057,-1.3321],[-46.1625,-1.278],[-46.1037,-1.2017],[-46.1473,-1.125],[-46.1553,-1.0032],[-46.2096,-0.9301],[-46.3202,-1.0217],[-46.39,-0.9868],[-46.4603,-1.024],[-46.4731,-0.9281],[-46.6465,-0.9045],[-46.6101,-0.8493],[-46.6875,-0.8172],[-46.8364,-0.815],[-46.9414,-0.8591],[-46.9515,-0.7341],[-47.0405,-0.7435],[-47.0907,-0.6693],[-47.1682,-0.6947],[-47.2121,-0.6372],[-47.3221,-0.5938],[-47.4063,-0.6571],[-47.4686,-0.5985],[-47.5801,-0.6378],[-47.6858,-0.5968],[-47.7035,-0.5349],[-47.8245,-0.6137],[-47.9104,-0.6127],[-48,-0.664],[-48.4721,-0.4988],[-48.3901,-0.3629],[-48.4118,-0.2569],[-48.6374,-0.2316],[-48.7024,-0.2568],[-48.8447,-0.2183],[-48.9131,-0.2328],[-49.0076,-0.1604],[-49.3671,0],[-49.393,0.0481],[-49.4751,0.0793],[-49.6772,0.3663],[-49.9029,0.3113],[-50.0608,0.3388],[-50.0404,0.5739],[-50.0935,0.7024],[-50.1976,0.7012],[-50.3468,0.6672],[-50.4361,0.6004],[-50.4758,0.4818],[-50.5795,0.2701],[-50.6677,0.1854],[-50.7843,0.1124],[-50.9744,0.0421],[-51.0652,-0.0759],[-51.2159,-0.1183],[-51.354,-0.3182],[-51.4573,-0.5129],[-51.5951,-0.6501],[-51.6836,-0.7972],[-51.6868,-1.0357],[-51.8086,-1.1568],[-51.8868,-1.1661],[-51.9929,-1.1286],[-52.0999,-1.2262],[-52.1198,-1.1459],[-52.3325,-1.1156],[-52.4163,-1.0253],[-52.4027,-0.8768],[-52.4438,-0.8338],[-52.5165,-0.8583],[-52.4969,-0.711],[-52.5347,-0.5738],[-52.6395,-0.5846],[-52.695,-0.4961],[-52.6837,-0.314],[-52.8511,-0.1498],[-52.9332,-0.1392],[-52.9768,0.0241],[-53.0936,0.2593],[-53.1748,0.382],[-53.1434,0.6966],[-53.1898,0.7687],[-53.411,0.9297],[-53.4568,1.1386],[-53.4383,1.2324],[-53.5562,1.2851],[-53.5381,1.3412],[-53.7832,1.4032],[-53.8499,1.3922],[-53.8955,1.4554],[-53.999,1.5051],[-54.0883,1.4923],[-54.1015,1.5846],[-54.3088,1.7414],[-54.3772,1.764],[-54.4955,1.7473],[-54.6014,1.7849],[-54.7443,1.7761],[-54.7711,1.9408],[-54.8108,2.0397],[-54.8058,2.1392],[-54.7626,2.2026],[-54.7938,2.313],[-54.8717,2.4341],[-55.0032,2.5914],[-55.1025,2.5261],[-55.1723,2.5598],[-55.2342,2.5038],[-55.3197,2.5158],[-55.3848,2.4189],[-55.4992,2.4437],[-55.7472,2.4125],[-55.9378,2.5334],[-55.9776,2.5278],[-55.9866,2.422],[-56.1248,2.2788],[-56.0423,2.2283],[-55.966,2.089],[-55.9082,2.0479],[-55.9353,1.9861],[-55.9033,1.8886],[-55.9983,1.8319],[-56.0981,1.8471],[-56.1518,1.8909],[-56.2434,1.8787],[-56.3573,1.9418],[-56.4825,1.9548],[-56.5805,1.9079],[-56.7204,1.9263],[-56.8019,1.8716],[-56.9192,1.9308],[-57.0002,1.9077],[-57.0987,2.0202],[-57.2286,1.954],[-57.3451,1.9807],[-57.4329,1.9065],[-57.4525,1.8065],[-57.5337,1.7086],[-57.6499,1.6828],[-57.6975,1.7142],[-57.9783,1.6564],[-58.0037,1.5035],[-58.1289,1.4994],[-58.1604,1.5606],[-58.3165,1.5706],[-58.389,1.5358],[-58.3851,1.4704],[-58.5082,1.4633],[-58.4695,1.3713],[-58.4957,1.2684],[-58.7049,1.2941],[-58.739,1.2005],[-58.8206,1.1715],[-58.8949,1.2282],[-58.8949,0.2639],[-58.8945,-0.0106],[-58.8634,-0.0777],[-58.8805,-0.1963],[-58.8715,-0.3427],[-58.7247,-0.4419],[-58.7102,-0.5211],[-58.7315,-0.627],[-58.5601,-0.8043],[-58.5005,-0.836],[-58.4142,-0.9667],[-58.4296,-1.0268],[-58.368,-1.0657],[-58.3228,-1.143],[-58.2543,-1.1323],[-58.1621,-1.2293],[-58.0813,-1.1262],[-58.017,-1.1058],[-57.965,-1.2058],[-57.9959,-1.344],[-57.918,-1.4195],[-57.8235,-1.4394],[-57.7728,-1.5085],[-57.7126,-1.5038],[-57.6782,-1.594],[-57.5896,-1.5798],[-57.4747,-1.6777],[-57.4114,-1.6729],[-57.3516,-1.7328],[-57.2739,-1.7094],[-57.0973,-1.7748],[-57.0367,-1.9112],[-56.8585,-2.0156],[-56.7474,-2.0112],[-56.7208,-2.0488],[-56.7689,-2.1403],[-56.6786,-2.2122],[-56.6124,-2.2098],[-56.5266,-2.1389],[-56.4134,-2.1756],[-56.2279,-2.0559],[-56.0981,-2.0267],[-56.1689,-2.1452],[-56.263,-2.2207],[-56.3838,-2.2701],[-56.464,-2.4313],[-56.4017,-2.4563],[-56.4871,-2.6326],[-56.8867,-3.4987],[-57.0184,-3.798],[-57.5476,-4.9212],[-57.8609,-5.6007],[-58.262,-6.4686],[-58.3251,-6.4989],[-58.3494,-6.562],[-58.4268,-6.6158],[-58.4779,-6.6992],[-58.4812,-6.7811],[-58.434,-6.9084],[-58.3383,-6.9835],[-58.1828,-7.1779],[-58.1695,-7.3128],[-58.1364,-7.3561]]]},"properties":{"name":"PA","fullName":"Pará"}},
{"type":"Feature","geometry":{"type":"Polygon","coordinates":[[[-38.7147,-7.6215],[-38.6261,-7.6943],[-38.5932,-7.754],[-38.4092,-7.7301],[-38.3204,-7.6976],[-38.2864,-7.8298],[-38.1636,-7.7795],[-38.0767,-7.8302],[-38.0391,-7.7477],[-37.971,-7.7769],[-37.8581,-7.6532],[-37.7555,-7.6191],[-37.6593,-7.5223],[-37.5328,-7.4726],[-37.4657,-7.3577],[-37.3853,-7.3563],[-37.3312,-7.2893],[-37.2325,-7.2747],[-37.1649,-7.3362],[-37.0258,-7.3875],[-36.9838,-7.4817],[-37.1211,-7.5357],[-37.1947,-7.6516],[-37.1385,-7.7451],[-37.2302,-7.8063],[-37.2952,-7.9645],[-37.1514,-8.009],[-37.1598,-8.17],[-37.0879,-8.2551],[-36.9907,-8.3026],[-36.8955,-8.2404],[-36.7531,-8.1911],[-36.6282,-8.1106],[-36.6274,-7.986],[-36.5516,-7.8983],[-36.4797,-7.9244],[-36.396,-7.8082],[-36.0703,-7.7805],[-35.9976,-7.8129],[-35.904,-7.7918],[-35.8716,-7.7491],[-35.6577,-7.697],[-35.5312,-7.6213],[-35.5028,-7.4557],[-35.4208,-7.4737],[-35.2433,-7.374],[-35.0974,-7.4079],[-34.9867,-7.4626],[-34.9602,-7.5383],[-34.8336,-7.5488],[-34.7935,-7.3289],[-34.7931,-7.1541],[-34.8217,-7.1305],[-34.8704,-6.985],[-34.8531,-6.8999],[-34.9022,-6.8649],[-34.9617,-6.6398],[-34.9691,-6.4878],[-35.1452,-6.5523],[-35.2318,-6.5314],[-35.3303,-6.5439],[-35.3984,-6.4922],[-35.6815,-6.4475],[-35.7729,-6.4824],[-36.0049,-6.4807],[-36.0613,-6.4098],[-36.2493,-6.437],[-36.2952,-6.393],[-36.3072,-6.2811],[-36.3941,-6.2936],[-36.4299,-6.3619],[-36.4994,-6.3578],[-36.5254,-6.5008],[-36.5134,-6.594],[-36.5573,-6.7104],[-36.5065,-6.8126],[-36.5731,-6.8578],[-36.6094,-6.9364],[-36.7658,-6.9352],[-36.7298,-6.836],[-36.8346,-6.7307],[-36.9567,-6.7901],[-37.0018,-6.7092],[-37.1288,-6.7659],[-37.1903,-6.825],[-37.2547,-6.8107],[-37.2635,-6.7318],[-37.3139,-6.6886],[-37.4843,-6.7096],[-37.4689,-6.5348],[-37.3965,-6.5138],[-37.3769,-6.344],[-37.3184,-6.28],[-37.1653,-6.17],[-37.1752,-6.0546],[-37.2985,-6.0498],[-37.4586,-6.1446],[-37.5692,-6.1551],[-37.6463,-6.189],[-37.7087,-6.1769],[-37.7745,-6.2312],[-37.8594,-6.3745],[-38.0533,-6.4522],[-38.0976,-6.5091],[-38.2561,-6.4828],[-38.2883,-6.5052],[-38.5336,-6.342],[-38.564,-6.3558],[-38.5298,-6.393],[-38.6119,-6.5128],[-38.6728,-6.6968],[-38.6411,-6.7904],[-38.675,-6.8614],[-38.7559,-6.9032],[-38.7495,-6.9976],[-38.656,-7.092],[-38.6765,-7.1685],[-38.5342,-7.2934],[-38.5849,-7.4344],[-38.6445,-7.4596],[-38.6549,-7.5651],[-38.7147,-7.6215]]]},"properties":{"name":"PB","fullName":"Paraíba"}},
{"type":"Feature","geometry":{"type":"Polygon","coordinates":[[[-35.152,-8.913],[-35.0665,-8.6439],[-34.9987,-8.5392],[-34.9517,-8.3753],[-34.9121,-8.1631],[-34.8373,-8.0057],[-34.8191,-7.9174],[-34.8468,-7.8122],[-34.807,-7.6249],[-34.8336,-7.5488],[-34.9602,-7.5383],[-34.9867,-7.4626],[-35.0974,-7.4079],[-35.2433,-7.374],[-35.4208,-7.4737],[-35.5028,-7.4557],[-35.5312,-7.6213],[-35.6577,-7.697],[-35.8716,-7.7491],[-35.904,-7.7918],[-35.9976,-7.8129],[-36.0703,-7.7805],[-36.396,-7.8082],[-36.4797,-7.9244],[-36.5516,-7.8983],[-36.6274,-7.986],[-36.6282,-8.1106],[-36.7531,-8.1911],[-36.8955,-8.2404],[-36.9907,-8.3026],[-37.0879,-8.2551],[-37.1598,-8.17],[-37.1514,-8.009],[-37.2952,-7.9645],[-37.2302,-7.8063],[-37.1385,-7.7451],[-37.1947,-7.6516],[-37.1211,-7.5357],[-36.9838,-7.4817],[-37.0258,-7.3875],[-37.1649,-7.3362],[-37.2325,-7.2747],[-37.3312,-7.2893],[-37.3853,-7.3563],[-37.4657,-7.3577],[-37.5328,-7.4726],[-37.6593,-7.5223],[-37.7555,-7.6191],[-37.8581,-7.6532],[-37.971,-7.7769],[-38.0391,-7.7477],[-38.0767,-7.8302],[-38.1636,-7.7795],[-38.2864,-7.8298],[-38.3204,-7.6976],[-38.4092,-7.7301],[-38.5932,-7.754],[-38.6261,-7.6943],[-38.7147,-7.6215],[-38.8216,-7.7144],[-38.942,-7.7632],[-38.9646,-7.8294],[-39.0534,-7.8189],[-39.1353,-7.723],[-39.2716,-7.6601],[-39.3172,-7.5409],[-39.3963,-7.4749],[-39.4785,-7.4457],[-39.6622,-7.3102],[-39.9152,-7.3378],[-39.9611,-7.3886],[-40.2461,-7.4333],[-40.319,-7.374],[-40.5481,-7.3923],[-40.7045,-7.4584],[-40.694,-7.5376],[-40.644,-7.6073],[-40.6778,-7.7247],[-40.6533,-7.7818],[-40.5434,-7.8352],[-40.5438,-7.9642],[-40.6326,-8.1392],[-40.7795,-8.3015],[-40.8707,-8.3581],[-40.9263,-8.4458],[-40.9805,-8.398],[-41.0507,-8.4801],[-41.1483,-8.5335],[-41.2063,-8.633],[-41.3579,-8.7072],[-41.2811,-8.7357],[-41.2266,-8.7043],[-41.1133,-8.7036],[-41.1014,-8.7816],[-40.921,-8.835],[-40.8512,-8.9521],[-40.8196,-9.08],[-40.667,-9.1587],[-40.6803,-9.2587],[-40.7369,-9.3365],[-40.7218,-9.4455],[-40.6228,-9.4825],[-40.5375,-9.4213],[-40.4679,-9.4201],[-40.4355,-9.3618],[-40.3577,-9.3768],[-40.3074,-9.271],[-40.2713,-9.0806],[-40.2273,-9.0557],[-40.1283,-9.1092],[-40.0653,-9.0628],[-39.9576,-9.0482],[-39.8736,-8.9309],[-39.8943,-8.8313],[-39.6742,-8.7867],[-39.6908,-8.6619],[-39.6072,-8.6556],[-39.3834,-8.5332],[-39.2882,-8.5629],[-39.2334,-8.7054],[-39.0321,-8.7369],[-38.9433,-8.8038],[-38.7984,-8.7924],[-38.7062,-8.8619],[-38.6918,-8.9374],[-38.6403,-8.9869],[-38.5708,-8.8312],[-38.4696,-8.8651],[-38.5191,-8.9479],[-38.4081,-9.0381],[-38.3202,-8.9907],[-38.3183,-9.1406],[-38.2371,-9.3293],[-38.158,-9.2639],[-38.0919,-9.1723],[-37.9789,-9.148],[-37.8387,-8.978],[-37.8287,-8.8934],[-37.7599,-8.8572],[-37.6432,-9.0179],[-37.5408,-8.9581],[-37.469,-9.0273],[-37.3151,-9.0939],[-37.2331,-9.2062],[-37.0836,-9.2519],[-36.952,-9.3821],[-36.8678,-9.2681],[-36.7967,-9.2926],[-36.6934,-9.2749],[-36.5858,-9.3377],[-36.4366,-9.2117],[-36.3653,-9.2222],[-36.2737,-9.1658],[-36.1953,-9.0444],[-36.1237,-9.0301],[-36.1265,-8.9556],[-35.9108,-8.861],[-35.7871,-8.8507],[-35.7479,-8.9167],[-35.5175,-8.8169],[-35.152,-8.913]]]},"properties":{"name":"PE","fullName":"Pernambuco"}},
{"type":"Feature","geometry":{"type":"Polygon","coordinates":[[[-41.3579,-8.7072],[-41.2063,-8.633],[-41.1483,-8.5335],[-41.0507,-8.4801],[-40.9805,-8.398],[-40.9263,-8.4458],[-40.8707,-8.3581],[-40.7795,-8.3015],[-40.6326,-8.1392],[-40.5438,-7.9642],[-40.5434,-7.8352],[-40.6533,-7.7818],[-40.6778,-7.7247],[-40.644,-7.6073],[-40.694,-7.5376],[-40.7045,-7.4584],[-40.5481,-7.3923],[-40.5118,-7.3014],[-40.4894,-7.1183],[-40.4273,-7.0335],[-40.4128,-6.8564],[-40.4759,-6.7341],[-40.6067,-6.7137],[-40.7098,-6.6757],[-40.7455,-6.5652],[-40.7873,-6.5234],[-40.8048,-6.3927],[-40.7791,-6.343],[-40.8518,-6.2238],[-40.8465,-6.1317],[-40.9384,-5.673],[-40.9007,-5.6154],[-40.932,-5.5485],[-40.9421,-5.4199],[-40.9129,-5.3077],[-40.9286,-5.1713],[-41.0797,-5.0907],[-41.1222,-5.0077],[-41.2203,-4.9372],[-41.2488,-4.8687],[-41.1739,-4.6671],[-41.2327,-4.6092],[-41.1596,-4.3811],[-41.1189,-4.3129],[-41.1374,-4.119],[-41.12,-4.036],[-41.2489,-3.9895],[-41.2199,-3.9411],[-41.2871,-3.8219],[-41.2551,-3.7029],[-41.3414,-3.6804],[-41.3253,-3.5361],[-41.3444,-3.419],[-41.4231,-3.3677],[-41.3221,-3.1794],[-41.2563,-3.0877],[-41.2719,-2.9709],[-41.3223,-2.921],[-41.6328,-2.8861],[-41.8137,-2.739],[-41.8651,-2.8745],[-41.7964,-2.9662],[-41.8239,-3.0241],[-41.9256,-3.1151],[-41.9998,-3.2407],[-42.1154,-3.262],[-42.1518,-3.3871],[-42.2097,-3.4359],[-42.3304,-3.4335],[-42.3986,-3.4723],[-42.5062,-3.4785],[-42.6754,-3.6752],[-42.6685,-3.729],[-42.7258,-3.9096],[-42.8233,-3.9918],[-42.8625,-4.0925],[-42.9888,-4.2337],[-42.9629,-4.376],[-42.8716,-4.4282],[-42.8675,-4.5632],[-42.9542,-4.6891],[-42.9481,-4.7665],[-42.8194,-5.09],[-42.7999,-5.199],[-42.8259,-5.3466],[-42.9129,-5.3985],[-43.0342,-5.5919],[-43.0803,-5.5995],[-43.0772,-5.7312],[-43.1009,-5.7651],[-43.099,-5.9007],[-43.0496,-6.0994],[-42.9682,-6.1779],[-42.874,-6.2277],[-42.8466,-6.2821],[-42.8774,-6.4175],[-42.8714,-6.5116],[-42.9194,-6.6699],[-43.0008,-6.7541],[-43.2443,-6.766],[-43.2783,-6.7962],[-43.4569,-6.8459],[-43.6371,-6.7192],[-43.795,-6.7025],[-43.9281,-6.7711],[-43.9608,-6.7415],[-44.1605,-6.8724],[-44.1731,-6.9239],[-44.3058,-7.1168],[-44.3796,-7.1186],[-44.5637,-7.2271],[-44.6876,-7.3941],[-44.8163,-7.3608],[-44.924,-7.4699],[-45.0444,-7.5108],[-45.155,-7.5131],[-45.2149,-7.5656],[-45.3394,-7.5799],[-45.4685,-7.6887],[-45.5204,-7.8877],[-45.5759,-8.0287],[-45.581,-8.1557],[-45.6611,-8.2496],[-45.6871,-8.3552],[-45.7419,-8.4507],[-45.738,-8.5008],[-45.8151,-8.6328],[-45.8395,-8.7149],[-45.938,-8.7845],[-45.9939,-8.9265],[-45.943,-9.0149],[-45.8982,-9.2093],[-45.9066,-9.2976],[-45.7974,-9.4168],[-45.7834,-9.4797],[-45.8315,-9.5364],[-45.821,-9.7727],[-45.864,-9.8611],[-45.8419,-9.9411],[-45.8781,-10.1099],[-45.9452,-10.196],[-45.946,-10.2582],[-45.8774,-10.2389],[-45.7933,-10.2673],[-45.7436,-10.2395],[-45.7225,-10.1549],[-45.6028,-10.1076],[-45.5167,-10.2861],[-45.4299,-10.3591],[-45.4026,-10.4649],[-45.4468,-10.507],[-45.4274,-10.6346],[-45.3578,-10.7318],[-45.2714,-10.7741],[-45.2476,-10.8216],[-45.0728,-10.84],[-44.9308,-10.9283],[-44.808,-10.8646],[-44.7876,-10.8081],[-44.713,-10.7616],[-44.5891,-10.632],[-44.4791,-10.64],[-44.3352,-10.5486],[-44.2636,-10.6243],[-44.1298,-10.6326],[-44.0726,-10.5803],[-44.0254,-10.4751],[-44.0289,-10.416],[-43.9168,-10.424],[-43.7787,-10.1801],[-43.7588,-10.0742],[-43.6925,-10.077],[-43.6656,-9.9898],[-43.7086,-9.9128],[-43.6528,-9.8386],[-43.7845,-9.762],[-43.8416,-9.637],[-43.8493,-9.5476],[-43.7693,-9.4416],[-43.6864,-9.4176],[-43.5742,-9.3177],[-43.4613,-9.2614],[-43.2847,-9.4196],[-43.1196,-9.3721],[-43.0542,-9.4149],[-42.9875,-9.4009],[-42.9459,-9.518],[-42.8202,-9.6188],[-42.7165,-9.5559],[-42.6212,-9.5408],[-42.4514,-9.4617],[-42.3188,-9.3198],[-42.2258,-9.2834],[-42.1001,-9.2806],[-41.9719,-9.2482],[-41.9244,-9.2774],[-41.8376,-9.2419],[-41.7997,-9.1476],[-41.6801,-9.0119],[-41.5445,-8.9376],[-41.4875,-8.8435],[-41.4238,-8.8021],[-41.3579,-8.7072]]]},"properties":{"name":"PI","fullName":"Piauí"}},
{"type":"Feature","geometry":{"type":"Polygon","coordinates":[[[-54.2871,-24.0695],[-54.3447,-24.1396],[-54.3227,-24.2495],[-54.2579,-24.3568],[-54.3225,-24.4578],[-54.3249,-24.6607],[-54.3817,-24.7679],[-54.4413,-24.9486],[-54.4606,-25.0945],[-54.4323,-25.1308],[-54.5007,-25.2989],[-54.5868,-25.3971],[-54.5931,-25.5918],[-54.444,-25.6624],[-54.3278,-25.5717],[-54.2368,-25.5699],[-54.1091,-25.4956],[-54.0788,-25.5586],[-54.0104,-25.5665],[-53.8635,-25.659],[-53.8214,-25.8001],[-53.8406,-25.8409],[-53.8165,-25.9891],[-53.7263,-26.0662],[-53.6426,-26.2523],[-53.4967,-26.3023],[-53.3848,-26.2457],[-53.3054,-26.2593],[-53.0901,-26.39],[-52.9898,-26.3473],[-52.6781,-26.3522],[-52.6134,-26.4094],[-52.5225,-26.4006],[-52.1118,-26.4756],[-52.0107,-26.5661],[-51.8731,-26.5997],[-51.6646,-26.5656],[-51.4677,-26.6216],[-51.4348,-26.6876],[-51.2829,-26.6535],[-51.2236,-26.5929],[-51.2973,-26.419],[-51.2428,-26.3236],[-51,-26.23],[-50.9087,-26.2844],[-50.699,-26.1808],[-50.5912,-26.0216],[-50.4592,-26.0266],[-50.367,-26.1117],[-50.251,-26.0297],[-50.1206,-26.0639],[-49.9931,-26.0111],[-49.865,-26.0347],[-49.6452,-26.2091],[-49.5546,-26.2368],[-49.4587,-26.1622],[-49.3724,-26.1531],[-49.1748,-26.0013],[-48.9977,-26.0113],[-48.9603,-25.9793],[-48.5939,-25.9766],[-48.5259,-25.8015],[-48.4144,-25.6235],[-48.3222,-25.5849],[-48.0985,-25.3109],[-48.1144,-25.2502],[-48.2156,-25.0762],[-48.4106,-24.9796],[-48.4736,-25.012],[-48.5281,-25.1003],[-48.598,-25.0186],[-48.567,-24.9717],[-48.5553,-24.8057],[-48.5019,-24.7442],[-48.6161,-24.6682],[-48.7782,-24.6962],[-48.8283,-24.6551],[-48.9219,-24.6747],[-49.0369,-24.6599],[-49.2084,-24.7003],[-49.3114,-24.6631],[-49.3172,-24.5661],[-49.2467,-24.4687],[-49.2409,-24.3846],[-49.3502,-24.2203],[-49.341,-24.1378],[-49.4867,-24.0241],[-49.5619,-23.8181],[-49.5494,-23.7032],[-49.6206,-23.6066],[-49.5948,-23.3664],[-49.6778,-23.1646],[-49.7259,-23.1111],[-49.9111,-23.0506],[-49.901,-22.9987],[-49.9609,-22.9304],[-50.067,-22.927],[-50.1828,-22.9533],[-50.2729,-22.9305],[-50.4275,-22.9445],[-50.5765,-22.9035],[-50.6755,-22.9],[-50.7093,-22.9529],[-50.7926,-22.9046],[-50.8904,-22.7953],[-50.9446,-22.8036],[-51.1544,-22.7524],[-51.3058,-22.6739],[-51.4458,-22.6528],[-51.5591,-22.6967],[-51.6153,-22.6621],[-51.7254,-22.6609],[-51.7729,-22.6141],[-51.873,-22.6278],[-51.94,-22.5669],[-52.1252,-22.5188],[-52.1562,-22.6442],[-52.2277,-22.6648],[-52.4348,-22.6069],[-52.5028,-22.6336],[-52.5798,-22.5685],[-52.7012,-22.627],[-52.9719,-22.57],[-53.1047,-22.6215],[-53.1804,-22.7132],[-53.3608,-22.7814],[-53.5342,-22.8821],[-53.6069,-22.9509],[-53.6361,-23.1246],[-53.7706,-23.3717],[-53.9823,-23.4595],[-54.0752,-23.764],[-54.0794,-23.8885],[-54.1292,-23.9816],[-54.2871,-24.0695]]]},"properties":{"name":"PR","fullName":"Paraná"}},
{"type":"Feature","geometry":{"type":"MultiPolygon","coordinates":[[[[-41.8745,-20.7663],[-41.9249,-20.8011],[-41.9669,-20.9163],[-42.138,-20.9601],[-42.0845,-21.0224],[-42.164,-21.101],[-42.2286,-21.2839],[-42.2295,-21.3661],[-42.2922,-21.4595],[-42.2523,-21.4898],[-42.3458,-21.5825],[-42.2711,-21.7147],[-42.3561,-21.7414],[-42.8821,-21.9596],[-43.073,-22.0934],[-43.1537,-22.0775],[-43.2362,-22.0128],[-43.3201,-22.0064],[-43.462,-22.0722],[-43.777,-22.0663],[-43.9879,-22.1497],[-44.0997,-22.1728],[-44.2129,-22.2458],[-44.3836,-22.267],[-44.4323,-22.2511],[-44.5431,-22.3313],[-44.7235,-22.3595],[-44.8088,-22.4048],[-44.7547,-22.4144],[-44.6449,-22.6021],[-44.5082,-22.6404],[-44.3912,-22.5729],[-44.2323,-22.608],[-44.1617,-22.6741],[-44.2571,-22.768],[-44.2695,-22.8298],[-44.4666,-22.8846],[-44.6066,-22.8852],[-44.7819,-22.9787],[-44.8244,-23.161],[-44.8885,-23.224],[-44.724,-23.3676],[-44.6404,-23.3327],[-44.5823,-23.3573],[-44.5127,-23.2929],[-44.7212,-23.2015],[-44.6676,-23.0536],[-44.5883,-23.0597],[-44.3781,-22.9592],[-44.237,-23.0564],[-44.1396,-23.0341],[-44.0462,-22.9382],[-43.9098,-22.9301],[-43.8364,-22.9031],[-43.5675,-23.0633],[-43.4435,-23.0217],[-43.1907,-22.9904],[-43.1685,-22.9155],[-43.1774,-22.8956],[-43.2379,-22.8616],[-43.2882,-22.8004],[-43.215,-22.7269],[-43.0317,-22.692],[-43.1116,-22.8677],[-43.1106,-22.9537],[-43.0138,-22.9763],[-42.7139,-22.9557],[-42.5853,-22.9328],[-42.291,-22.939],[-42.0763,-22.9552],[-41.9809,-22.8724],[-41.9697,-22.821],[-41.8866,-22.7769],[-41.9846,-22.7173],[-41.9979,-22.6083],[-41.852,-22.4461],[-41.6886,-22.2996],[-41.4827,-22.2115],[-41.242,-22.1467],[-41.0092,-22.022],[-40.9746,-21.9701],[-41.0257,-21.7206],[-41.01,-21.6115],[-41.0708,-21.5443],[-41.064,-21.4869],[-40.9822,-21.3933],[-40.9572,-21.303],[-41.081,-21.2215],[-41.2049,-21.2434],[-41.2409,-21.2207],[-41.548,-21.1824],[-41.7357,-21.1023],[-41.7115,-20.9806],[-41.7405,-20.8178],[-41.8745,-20.7663]]],[[[-44.2332,-23.0894],[-44.2844,-23.1361],[-44.2444,-23.1997],[-44.1589,-23.1715],[-44.2332,-23.0894]]]]},"properties":{"name":"RJ","fullName":"Rio de Janeiro"}},
{"type":"Feature","geometry":{"type":"Polygon","coordinates":[[[-38.564,-6.3558],[-38.5336,-6.342],[-38.2883,-6.5052],[-38.2561,-6.4828],[-38.0976,-6.5091],[-38.0533,-6.4522],[-37.8594,-6.3745],[-37.7745,-6.2312],[-37.7087,-6.1769],[-37.6463,-6.189],[-37.5692,-6.1551],[-37.4586,-6.1446],[-37.2985,-6.0498],[-37.1752,-6.0546],[-37.1653,-6.17],[-37.3184,-6.28],[-37.3769,-6.344],[-37.3965,-6.5138],[-37.4689,-6.5348],[-37.4843,-6.7096],[-37.3139,-6.6886],[-37.2635,-6.7318],[-37.2547,-6.8107],[-37.1903,-6.825],[-37.1288,-6.7659],[-37.0018,-6.7092],[-36.9567,-6.7901],[-36.8346,-6.7307],[-36.7298,-6.836],[-36.7658,-6.9352],[-36.6094,-6.9364],[-36.5731,-6.8578],[-36.5065,-6.8126],[-36.5573,-6.7104],[-36.5134,-6.594],[-36.5254,-6.5008],[-36.4994,-6.3578],[-36.4299,-6.3619],[-36.3941,-6.2936],[-36.3072,-6.2811],[-36.2952,-6.393],[-36.2493,-6.437],[-36.0613,-6.4098],[-36.0049,-6.4807],[-35.7729,-6.4824],[-35.6815,-6.4475],[-35.3984,-6.4922],[-35.3303,-6.5439],[-35.2318,-6.5314],[-35.1452,-6.5523],[-34.9691,-6.4878],[-34.9917,-6.3729],[-35.0367,-6.3142],[-35.0368,-6.2356],[-35.094,-6.1818],[-35.1068,-6.0059],[-35.2043,-5.7405],[-35.226,-5.5835],[-35.2607,-5.4804],[-35.4177,-5.2214],[-35.4886,-5.158],[-35.9489,-5.0438],[-36.0361,-5.0505],[-36.1239,-5.0901],[-36.2432,-5.0958],[-36.5055,-5.0619],[-36.6895,-5.0919],[-36.799,-5.0384],[-36.8812,-4.9486],[-36.9622,-4.9194],[-37.0295,-4.9485],[-37.1667,-4.9318],[-37.2516,-4.832],[-37.6399,-4.926],[-37.6773,-5.053],[-37.7237,-5.0695],[-37.7896,-5.2106],[-37.7827,-5.2944],[-37.8471,-5.3396],[-37.9044,-5.5008],[-37.9896,-5.5554],[-38.0823,-5.6722],[-38.0467,-5.73],[-38.1105,-5.8188],[-38.1246,-5.8872],[-38.2513,-6.01],[-38.3044,-6.0866],[-38.4469,-6.0849],[-38.5193,-6.2227],[-38.5782,-6.2798],[-38.564,-6.3558]]]},"properties":{"name":"RN","fullName":"Rio Grande do Norte"}},
{"type":"Feature","geometry":{"type":"Polygon","coordinates":[[[-66.6193,-9.8936],[-66.4589,-9.8752],[-66.3593,-9.8657],[-66.1516,-9.7852],[-66.0346,-9.787],[-65.9222,-9.754],[-65.8425,-9.7847],[-65.6685,-9.7807],[-65.6299,-9.8339],[-65.5122,-9.7922],[-65.4999,-9.7295],[-65.3943,-9.6852],[-65.354,-9.7232],[-65.2884,-9.8675],[-65.3206,-9.9055],[-65.329,-10.0461],[-65.2891,-10.2097],[-65.3239,-10.3009],[-65.3912,-10.374],[-65.4289,-10.4806],[-65.3485,-10.6717],[-65.3435,-10.7689],[-65.2753,-10.8702],[-65.2511,-10.9835],[-65.2997,-11.0309],[-65.2874,-11.0922],[-65.3629,-11.1468],[-65.3607,-11.2509],[-65.3086,-11.4929],[-65.2244,-11.516],[-65.2203,-11.6601],[-65.2554,-11.7151],[-65.0883,-11.7088],[-65.0592,-11.7903],[-65.0701,-11.8687],[-65.0151,-11.8942],[-65.0347,-11.9855],[-64.9177,-12.0262],[-64.8379,-12.0109],[-64.7118,-12.1737],[-64.5473,-12.2416],[-64.4922,-12.2938],[-64.5123,-12.3466],[-64.4155,-12.441],[-64.0594,-12.4905],[-63.9404,-12.526],[-63.7857,-12.4275],[-63.6214,-12.4724],[-63.5009,-12.5668],[-63.4365,-12.5826],[-63.3769,-12.6553],[-63.2949,-12.6814],[-63.1896,-12.6407],[-63.0928,-12.6575],[-63.0076,-12.8371],[-62.8914,-12.8584],[-62.7333,-13.0214],[-62.6617,-12.9714],[-62.5459,-13.0735],[-62.4422,-13.0795],[-62.4126,-13.1271],[-62.1145,-13.1633],[-62.1093,-13.2497],[-61.9698,-13.4057],[-61.8862,-13.4401],[-61.8826,-13.4968],[-61.7567,-13.5401],[-61.5984,-13.5012],[-61.4693,-13.5547],[-61.2617,-13.497],[-61.0057,-13.5466],[-60.9332,-13.5402],[-60.8789,-13.6172],[-60.7078,-13.6925],[-60.6317,-13.5713],[-60.3874,-13.4543],[-60.3608,-13.2993],[-60.2671,-13.0769],[-60.1828,-12.9672],[-60.1166,-12.9591],[-60.0786,-12.8807],[-60.0885,-12.7401],[-60.0261,-12.5612],[-59.9026,-12.4721],[-59.8679,-12.482],[-59.7924,-12.3454],[-59.8858,-12.2451],[-59.9007,-12.115],[-59.9788,-12.0291],[-59.9846,-11.9139],[-60.0983,-11.8452],[-60.1211,-11.7117],[-60.0902,-11.5545],[-59.9201,-11.3976],[-59.9272,-11.31],[-60.0189,-11.1287],[-60.1587,-11.0953],[-60.391,-11.0934],[-60.4595,-10.9895],[-61.4285,-10.9871],[-61.5295,-10.9786],[-61.5216,-10.8448],[-61.4797,-10.7852],[-61.4983,-10.6995],[-61.4757,-10.6073],[-61.4612,-10.4195],[-61.5332,-10.3315],[-61.5996,-10.1544],[-61.5307,-9.9895],[-61.5074,-9.8607],[-61.5468,-9.7872],[-61.4771,-9.6269],[-61.5075,-9.5401],[-61.581,-9.4585],[-61.5523,-9.3872],[-61.6248,-9.3391],[-61.5231,-9.1786],[-61.5544,-9.0899],[-61.4681,-8.9171],[-61.5132,-8.8366],[-61.5824,-8.7983],[-61.6259,-8.7285],[-61.7413,-8.6948],[-61.7741,-8.7479],[-61.8436,-8.747],[-61.8595,-8.8527],[-61.9897,-8.8723],[-62.0305,-8.7993],[-62.1244,-8.8013],[-62.1879,-8.5902],[-62.2684,-8.5754],[-62.3655,-8.4932],[-62.3603,-8.3982],[-62.4649,-8.3394],[-62.5179,-8.3844],[-62.5849,-8.2715],[-62.6494,-8.2367],[-62.6917,-8.0925],[-62.8661,-7.9755],[-63.5,-7.9759],[-63.6203,-7.9689],[-63.6213,-8.0292],[-63.7222,-8.2491],[-63.7907,-8.3328],[-63.8702,-8.2884],[-63.9436,-8.3308],[-63.9403,-8.4519],[-63.9727,-8.4781],[-63.9241,-8.5751],[-63.9857,-8.5853],[-64.035,-8.6932],[-64.1426,-8.7427],[-64.1577,-8.8428],[-64.1413,-8.9447],[-64.2327,-8.9919],[-64.3108,-8.9961],[-64.3229,-8.9285],[-64.4461,-8.9765],[-64.5496,-8.9779],[-64.5875,-9.0091],[-64.8701,-9.0118],[-64.9394,-9.1242],[-64.9192,-9.2199],[-65,-9.3042],[-65.0531,-9.4018],[-65.1424,-9.4464],[-65.1863,-9.4146],[-65.2113,-9.2786],[-65.2462,-9.2573],[-65.377,-9.324],[-65.4398,-9.3114],[-65.4561,-9.4008],[-65.5027,-9.4696],[-65.5963,-9.4135],[-65.679,-9.451],[-65.7231,-9.5587],[-65.7996,-9.5846],[-65.8246,-9.5297],[-65.9122,-9.4834],[-65.9699,-9.4128],[-66.1235,-9.4084],[-66.1732,-9.434],[-66.2593,-9.4106],[-66.3744,-9.426],[-66.392,-9.5001],[-66.5002,-9.6332],[-66.775,-9.7527],[-66.806,-9.8141],[-66.6193,-9.8936]]]},"properties":{"name":"RO","fullName":"Rondônia"}},
{"type":"Feature","geometry":{"type":"Polygon","coordinates":[[[-58.8949,0.2639],[-58.8949,1.2282],[-58.9655,1.3128],[-59.1518,1.3491],[-59.2688,1.4009],[-59.3392,1.5186],[-59.4223,1.5562],[-59.4474,1.6198],[-59.5671,1.7359],[-59.6159,1.7164],[-59.6868,1.7564],[-59.6498,1.8425],[-59.7454,1.8523],[-59.7587,1.9009],[-59.7277,2.0304],[-59.7372,2.1485],[-59.7187,2.2375],[-59.896,2.3633],[-59.8965,2.4824],[-59.9698,2.5945],[-59.9896,2.6866],[-59.9796,2.9332],[-59.9545,3.0818],[-59.9126,3.1476],[-59.9032,3.2167],[-59.8058,3.365],[-59.8411,3.4265],[-59.8031,3.5075],[-59.85,3.6043],[-59.7606,3.6325],[-59.6678,3.7035],[-59.674,3.7625],[-59.6006,3.7963],[-59.5905,3.8891],[-59.5279,3.9243],[-59.6488,4.0718],[-59.6159,4.1325],[-59.724,4.1828],[-59.7157,4.3037],[-59.6754,4.3467],[-59.7384,4.4217],[-59.969,4.5031],[-60.163,4.5122],[-60.1568,4.5659],[-60.0746,4.609],[-60.0295,4.7009],[-59.9936,4.9323],[-60.0109,5.0876],[-60.0986,5.1481],[-60.1322,5.2263],[-60.2144,5.271],[-60.3276,5.2059],[-60.5701,5.1969],[-60.6504,5.2307],[-60.6416,5.0569],[-60.5835,4.9561],[-60.7427,4.7617],[-60.9479,4.6558],[-60.9319,4.5867],[-60.9956,4.518],[-61.0921,4.5228],[-61.1461,4.4829],[-61.269,4.54],[-61.351,4.4191],[-61.4477,4.4394],[-61.5128,4.4066],[-61.5076,4.3215],[-61.5631,4.2528],[-61.7642,4.2501],[-61.8181,4.1704],[-62.0494,4.1515],[-62.1473,4.0795],[-62.2513,4.1303],[-62.3303,4.1364],[-62.389,4.1784],[-62.5411,4.1103],[-62.534,4.0517],[-62.7659,4.0128],[-62.7881,3.8937],[-62.7535,3.8504],[-62.7303,3.7082],[-62.8037,3.7301],[-62.9843,3.6101],[-63.0721,3.6871],[-63.0601,3.7523],[-63.1235,3.8049],[-63.2036,3.812],[-63.2328,3.8816],[-63.2057,3.9518],[-63.3926,3.9809],[-63.4367,3.8644],[-63.5476,3.8631],[-63.6802,4.0174],[-63.737,3.9155],[-63.859,3.948],[-63.9587,3.8879],[-64.035,3.9347],[-64.1078,4.0862],[-64.1712,4.1292],[-64.289,4.1442],[-64.4301,4.1341],[-64.5598,4.1023],[-64.6296,4.1444],[-64.6984,4.2516],[-64.7799,4.287],[-64.8242,4.2437],[-64.8099,4.1751],[-64.7314,4.1207],[-64.6732,4.0051],[-64.5796,3.9287],[-64.5677,3.8822],[-64.4717,3.7821],[-64.4278,3.7804],[-64.2885,3.7001],[-64.1851,3.5601],[-64.1862,3.5],[-64.2547,3.4114],[-64.2133,3.2467],[-64.233,3.1299],[-64.0127,2.8194],[-63.9839,2.6597],[-64.0409,2.5767],[-64.0392,2.4947],[-63.7803,2.3916],[-63.6427,2.3849],[-63.4651,2.4337],[-63.3718,2.2121],[-63.2823,2.1542],[-63.141,2.1728],[-63.1193,2.0968],[-63.0233,2.015],[-62.948,2.0313],[-62.8383,2.0168],[-62.7055,1.94],[-62.7305,1.8185],[-62.7232,1.7127],[-62.8039,1.5907],[-62.7303,1.4999],[-62.6197,1.4041],[-62.5864,1.2558],[-62.5206,1.0841],[-62.4453,0.9772],[-62.4855,0.8669],[-62.4572,0.7855],[-62.528,0.7105],[-62.5325,0.5091],[-62.4458,0.3794],[-62.4664,0.3333],[-62.4522,0.2077],[-62.4144,0.0747],[-62.3461,0.0299],[-62.3192,-0.1022],[-62.2445,-0.1744],[-62.2531,-0.2711],[-62.1878,-0.3305],[-62.2267,-0.4255],[-62.2734,-0.4538],[-62.3178,-0.5522],[-62.287,-0.638],[-62.3667,-0.7097],[-62.4691,-0.6936],[-62.5005,-0.7811],[-62.3953,-0.82],[-62.3122,-0.93],[-62.1714,-1.0056],[-62.0991,-1.0964],[-62.0169,-1.1414],[-61.8961,-1.395],[-61.7975,-1.3803],[-61.6044,-1.4478],[-61.5816,-1.3531],[-61.6264,-1.2936],[-61.5461,-1.0709],[-61.578,-0.9097],[-61.543,-0.852],[-61.5383,-0.7559],[-61.4564,-0.6567],[-61.3479,-0.5952],[-61.2236,-0.5592],[-61.2225,-0.5053],[-61.0869,-0.4998],[-60.975,-0.5623],[-60.7605,-0.7611],[-60.7522,-0.8609],[-60.6541,-0.8828],[-60.5908,-0.8531],[-60.5305,-0.8747],[-60.4786,-0.7706],[-60.4341,-0.7723],[-60.3031,-0.7109],[-60.3994,-0.5098],[-60.3442,-0.4403],[-60.2894,-0.2928],[-60.2853,-0.2103],[-60.22,-0.135],[-60.2027,-0.0333],[-60.1427,0.0377],[-60.1158,0.1336],[-60.0586,0.1633],[-60.0374,0.2638],[-59.433,0.2639],[-58.8949,0.2639]]]},"properties":{"name":"RR","fullName":"Roraima"}},
{"type":"Feature","geometry":{"type":"Polygon","coordinates":[[[-52.0437,-31.5737],[-51.9931,-31.413],[-51.9189,-31.3103],[-51.8434,-31.3227],[-51.7899,-31.2727],[-51.6277,-31.2649],[-51.6281,-31.1524],[-51.4607,-31.096],[-51.4961,-30.9149],[-51.3895,-30.8794],[-51.4053,-30.7561],[-51.3864,-30.6545],[-51.3171,-30.6476],[-51.2955,-30.7505],[-51.2979,-30.5588],[-51.1999,-30.4079],[-51.1423,-30.4705],[-51.1214,-30.3966],[-51.2931,-30.3035],[-51.3138,-30.0823],[-51.2657,-30.1026],[-51.1578,-30.262],[-51.1021,-30.2539],[-51.0302,-30.274],[-51.0469,-30.3809],[-50.9729,-30.4071],[-50.9065,-30.3228],[-50.7964,-30.3379],[-50.7812,-30.2844],[-50.6727,-30.2961],[-50.6584,-30.1994],[-50.5969,-30.1941],[-50.5374,-30.2734],[-50.5681,-30.4578],[-50.6106,-30.4852],[-50.7,-30.4242],[-50.679,-30.6086],[-50.7015,-30.7458],[-50.7531,-30.8183],[-50.9108,-30.9052],[-50.954,-31.0027],[-51.1031,-31.0989],[-51.1767,-31.0816],[-51.1586,-31.2811],[-51.2378,-31.4576],[-51.3703,-31.5291],[-51.4621,-31.5439],[-51.5929,-31.7054],[-51.6928,-31.782],[-51.8124,-31.8168],[-51.9079,-31.8686],[-52.0035,-31.8186],[-52.0916,-31.8609],[-52.0262,-31.9153],[-52.04,-32.0364],[-51.9786,-32.0433],[-51.8172,-31.9104],[-51.4699,-31.7259],[-51.2498,-31.5667],[-51.1733,-31.4723],[-50.887,-31.2359],[-50.7688,-31.1096],[-50.3083,-30.4554],[-50.1174,-29.9752],[-49.9226,-29.6065],[-49.7113,-29.3254],[-49.8405,-29.2771],[-49.8685,-29.224],[-49.9625,-29.1984],[-50.0927,-29.2219],[-49.9677,-29.1156],[-49.9561,-29.067],[-49.9381,-28.8717],[-49.9635,-28.8217],[-49.9349,-28.7276],[-49.8459,-28.705],[-49.8168,-28.6401],[-49.7278,-28.6229],[-49.7278,-28.518],[-49.8769,-28.4541],[-49.971,-28.4386],[-50.0357,-28.4774],[-50.1452,-28.446],[-50.2711,-28.4562],[-50.3696,-28.424],[-50.5763,-28.3932],[-50.6645,-28.3375],[-50.7489,-28.2472],[-50.7919,-28.1389],[-50.8688,-28.1089],[-50.9284,-27.9686],[-51.0558,-27.901],[-51.0538,-27.8674],[-51.1904,-27.7767],[-51.2731,-27.7491],[-51.3161,-27.6742],[-51.4202,-27.6544],[-51.4773,-27.5696],[-51.6072,-27.5412],[-51.6986,-27.4802],[-51.8205,-27.5123],[-51.9019,-27.4955],[-51.9554,-27.4144],[-52.1209,-27.3029],[-52.2068,-27.326],[-52.346,-27.288],[-52.5358,-27.2595],[-52.7065,-27.2724],[-52.7736,-27.2068],[-52.9697,-27.2163],[-53.0418,-27.1262],[-53.1295,-27.178],[-53.2925,-27.1394],[-53.4107,-27.1403],[-53.5262,-27.1958],[-53.6754,-27.1607],[-53.7364,-27.1912],[-53.8338,-27.1693],[-54.0172,-27.2011],[-54.0775,-27.2968],[-54.1902,-27.3066],[-54.2112,-27.3787],[-54.2841,-27.4471],[-54.3594,-27.4594],[-54.4064,-27.4045],[-54.5187,-27.5013],[-54.682,-27.5743],[-54.8278,-27.5578],[-54.9055,-27.6472],[-54.9361,-27.7721],[-55.0307,-27.8251],[-55.1958,-27.8562],[-55.2637,-27.9313],[-55.3732,-27.9751],[-55.3746,-28.0358],[-55.4445,-28.0962],[-55.4954,-28.079],[-55.5624,-28.1623],[-55.7486,-28.233],[-55.6672,-28.3406],[-55.7599,-28.3675],[-55.8716,-28.3585],[-55.8855,-28.4796],[-56.0104,-28.5071],[-56.002,-28.5989],[-56.1244,-28.6867],[-56.1888,-28.7719],[-56.2997,-28.8132],[-56.2976,-28.8901],[-56.3942,-28.9581],[-56.4135,-29.0707],[-56.5889,-29.1196],[-56.7051,-29.3613],[-56.7691,-29.3809],[-56.8101,-29.4761],[-56.9061,-29.5378],[-56.9651,-29.6327],[-57.101,-29.749],[-57.2203,-29.7769],[-57.3253,-29.8765],[-57.3299,-29.9801],[-57.4614,-30.1059],[-57.5476,-30.1633],[-57.566,-30.2568],[-57.415,-30.2794],[-57.2017,-30.2846],[-57.1673,-30.1987],[-57.0845,-30.0996],[-56.9923,-30.0861],[-56.8219,-30.0969],[-56.7833,-30.1526],[-56.6623,-30.1977],[-56.6053,-30.2822],[-56.3796,-30.4992],[-56.1905,-30.6039],[-56.1317,-30.7315],[-56.0224,-30.7861],[-56.0083,-31.0709],[-55.8692,-31.0697],[-55.8108,-31.0153],[-55.6583,-30.9445],[-55.6622,-30.8728],[-55.5824,-30.8352],[-55.436,-31.0039],[-55.3732,-31.0189],[-55.3377,-31.1322],[-55.0732,-31.3319],[-55.0059,-31.2678],[-54.9379,-31.3807],[-54.8353,-31.4414],[-54.758,-31.4251],[-54.5849,-31.4577],[-54.4738,-31.5704],[-54.4539,-31.6521],[-54.0854,-31.9325],[-53.9717,-31.9183],[-53.8065,-32.0679],[-53.7453,-32.0783],[-53.7099,-32.199],[-53.6423,-32.2965],[-53.6437,-32.3832],[-53.5259,-32.4869],[-53.4714,-32.4802],[-53.4313,-32.5654],[-53.1655,-32.6482],[-53.0002,-32.5973],[-52.9424,-32.4781],[-52.7888,-32.445],[-52.8173,-32.3405],[-52.7665,-32.2043],[-52.6219,-32.1433],[-52.6931,-32.3176],[-52.5856,-32.5262],[-52.611,-32.62],[-52.75,-32.8616],[-52.8333,-32.9132],[-52.8979,-32.8901],[-53.0029,-32.7845],[-53.1551,-32.8398],[-53.1594,-32.9692],[-53.261,-33.1072],[-53.3181,-33.088],[-53.4075,-33.1623],[-53.4697,-33.2592],[-53.428,-33.4201],[-53.434,-33.4994],[-53.5325,-33.6471],[-53.3727,-33.7446],[-53.1516,-33.5889],[-52.7952,-33.302],[-52.6618,-33.1606],[-52.5115,-32.9027],[-52.4155,-32.6068],[-52.3064,-32.361],[-52.2313,-32.2565],[-52.0982,-32.1615],[-52.0861,-32.0582],[-52.1124,-31.9426],[-52.196,-31.8962],[-52.2252,-31.7514],[-52.0764,-31.6815],[-52.1119,-31.6047],[-52.0437,-31.5737]]]},"properties":{"name":"RS","fullName":"Rio Grande do Sul"}},
{"type":"Feature","geometry":{"type":"MultiPolygon","coordinates":[[[[-53.6426,-26.2523],[-53.7058,-26.3954],[-53.6942,-26.4897],[-53.7205,-26.5599],[-53.7354,-26.7404],[-53.671,-26.893],[-53.7465,-27.0305],[-53.8033,-27.082],[-53.8338,-27.1693],[-53.7364,-27.1912],[-53.6754,-27.1607],[-53.5262,-27.1958],[-53.4107,-27.1403],[-53.2925,-27.1394],[-53.1295,-27.178],[-53.0418,-27.1262],[-52.9697,-27.2163],[-52.7736,-27.2068],[-52.7065,-27.2724],[-52.5358,-27.2595],[-52.346,-27.288],[-52.2068,-27.326],[-52.1209,-27.3029],[-51.9554,-27.4144],[-51.9019,-27.4955],[-51.8205,-27.5123],[-51.6986,-27.4802],[-51.6072,-27.5412],[-51.4773,-27.5696],[-51.4202,-27.6544],[-51.3161,-27.6742],[-51.2731,-27.7491],[-51.1904,-27.7767],[-51.0538,-27.8674],[-51.0558,-27.901],[-50.9284,-27.9686],[-50.8688,-28.1089],[-50.7919,-28.1389],[-50.7489,-28.2472],[-50.6645,-28.3375],[-50.5763,-28.3932],[-50.3696,-28.424],[-50.2711,-28.4562],[-50.1452,-28.446],[-50.0357,-28.4774],[-49.971,-28.4386],[-49.8769,-28.4541],[-49.7278,-28.518],[-49.7278,-28.6229],[-49.8168,-28.6401],[-49.8459,-28.705],[-49.9349,-28.7276],[-49.9635,-28.8217],[-49.9381,-28.8717],[-49.9561,-29.067],[-49.9677,-29.1156],[-50.0927,-29.2219],[-49.9625,-29.1984],[-49.8685,-29.224],[-49.8405,-29.2771],[-49.7113,-29.3254],[-49.4209,-28.9961],[-49.1837,-28.7998],[-48.908,-28.6377],[-48.8093,-28.605],[-48.7465,-28.4948],[-48.7667,-28.4643],[-48.6096,-28.0402],[-48.623,-27.9508],[-48.5777,-27.8824],[-48.6047,-27.6732],[-48.6004,-27.5725],[-48.6467,-27.4825],[-48.5793,-27.4334],[-48.5543,-27.3131],[-48.6153,-27.274],[-48.5709,-27.0236],[-48.6208,-26.9993],[-48.6277,-26.8352],[-48.6866,-26.669],[-48.5918,-26.4063],[-48.5053,-26.2386],[-48.5805,-26.1648],[-48.6066,-26.0559],[-48.5939,-25.9766],[-48.9603,-25.9793],[-48.9977,-26.0113],[-49.1748,-26.0013],[-49.3724,-26.1531],[-49.4587,-26.1622],[-49.5546,-26.2368],[-49.6452,-26.2091],[-49.865,-26.0347],[-49.9931,-26.0111],[-50.1206,-26.0639],[-50.251,-26.0297],[-50.367,-26.1117],[-50.4592,-26.0266],[-50.5912,-26.0216],[-50.699,-26.1808],[-50.9087,-26.2844],[-51,-26.23],[-51.2428,-26.3236],[-51.2973,-26.419],[-51.2236,-26.5929],[-51.2829,-26.6535],[-51.4348,-26.6876],[-51.4677,-26.6216],[-51.6646,-26.5656],[-51.8731,-26.5997],[-52.0107,-26.5661],[-52.1118,-26.4756],[-52.5225,-26.4006],[-52.6134,-26.4094],[-52.6781,-26.3522],[-52.9898,-26.3473],[-53.0901,-26.39],[-53.3054,-26.2593],[-53.3848,-26.2457],[-53.4967,-26.3023],[-53.6426,-26.2523]]],[[[-48.4103,-27.3894],[-48.5385,-27.478],[-48.5081,-27.5476],[-48.5709,-27.6871],[-48.5061,-27.7449],[-48.37,-27.4513],[-48.4103,-27.3894]]]]},"properties":{"name":"SC","fullName":"Santa Catarina"}},
{"type":"Feature","geometry":{"type":"Polygon","coordinates":[[[-38.003,-9.5146],[-38.04,-9.5727],[-38.0066,-9.6513],[-38.0395,-9.6862],[-38.0278,-9.7757],[-37.966,-9.8195],[-37.9973,-9.9103],[-37.9677,-9.9621],[-37.8314,-10.0005],[-37.774,-10.1444],[-37.7362,-10.3316],[-37.8303,-10.3745],[-37.8587,-10.426],[-37.8126,-10.5081],[-37.83,-10.5843],[-37.8135,-10.6906],[-37.9995,-10.7639],[-38.0579,-10.7081],[-38.2115,-10.7087],[-38.2415,-10.8002],[-38.2291,-10.9155],[-38.1756,-10.9849],[-38.1112,-11.0095],[-38.072,-11.1525],[-37.9808,-11.1987],[-38.003,-11.2891],[-37.9675,-11.3902],[-37.8676,-11.442],[-37.8133,-11.5139],[-37.6882,-11.5658],[-37.6316,-11.518],[-37.5526,-11.5469],[-37.4439,-11.5161],[-37.3425,-11.4434],[-37.2601,-11.2876],[-37.1514,-11.1623],[-37.1264,-11.0986],[-36.937,-10.8311],[-36.8075,-10.704],[-36.62,-10.589],[-36.3934,-10.4981],[-36.4311,-10.4239],[-36.5638,-10.4159],[-36.5665,-10.3323],[-36.6427,-10.2523],[-36.6831,-10.2733],[-36.8109,-10.219],[-36.9105,-10.1375],[-36.9667,-9.9936],[-37.0374,-9.9887],[-37.1525,-9.9004],[-37.2262,-9.899],[-37.285,-9.8305],[-37.4665,-9.7491],[-37.5814,-9.7335],[-37.7114,-9.6309],[-37.7848,-9.6382],[-37.8858,-9.5497],[-38.003,-9.5146]]]},"properties":{"name":"SE","fullName":"Sergipe"}},
{"type":"Feature","geometry":{"type":"MultiPolygon","coordinates":[[[[-51,-20.0849],[-51.0687,-20.2496],[-51.1669,-20.3059],[-51.2952,-20.328],[-51.3504,-20.3627],[-51.4997,-20.5677],[-51.5957,-20.6483],[-51.6344,-20.7544],[-51.6262,-20.9459],[-51.7132,-20.971],[-51.7892,-21.1016],[-51.8785,-21.1477],[-51.848,-21.2662],[-51.8672,-21.3512],[-51.9282,-21.4553],[-51.9977,-21.5152],[-52.1028,-21.5586],[-52.0493,-21.6609],[-52.1024,-21.7448],[-52.1608,-21.7703],[-52.1901,-21.8457],[-52.3186,-21.9719],[-52.3449,-22.0615],[-52.4862,-22.2147],[-52.5787,-22.2515],[-52.7978,-22.3778],[-52.8542,-22.4386],[-52.9981,-22.4927],[-53.1047,-22.6215],[-52.9719,-22.57],[-52.7012,-22.627],[-52.5798,-22.5685],[-52.5028,-22.6336],[-52.4348,-22.6069],[-52.2277,-22.6648],[-52.1562,-22.6442],[-52.1252,-22.5188],[-51.94,-22.5669],[-51.873,-22.6278],[-51.7729,-22.6141],[-51.7254,-22.6609],[-51.6153,-22.6621],[-51.5591,-22.6967],[-51.4458,-22.6528],[-51.3058,-22.6739],[-51.1544,-22.7524],[-50.9446,-22.8036],[-50.8904,-22.7953],[-50.7926,-22.9046],[-50.7093,-22.9529],[-50.6755,-22.9],[-50.5765,-22.9035],[-50.4275,-22.9445],[-50.2729,-22.9305],[-50.1828,-22.9533],[-50.067,-22.927],[-49.9609,-22.9304],[-49.901,-22.9987],[-49.9111,-23.0506],[-49.7259,-23.1111],[-49.6778,-23.1646],[-49.5948,-23.3664],[-49.6206,-23.6066],[-49.5494,-23.7032],[-49.5619,-23.8181],[-49.4867,-24.0241],[-49.341,-24.1378],[-49.3502,-24.2203],[-49.2409,-24.3846],[-49.2467,-24.4687],[-49.3172,-24.5661],[-49.3114,-24.6631],[-49.2084,-24.7003],[-49.0369,-24.6599],[-48.9219,-24.6747],[-48.8283,-24.6551],[-48.7782,-24.6962],[-48.6161,-24.6682],[-48.5019,-24.7442],[-48.5553,-24.8057],[-48.567,-24.9717],[-48.598,-25.0186],[-48.5281,-25.1003],[-48.4736,-25.012],[-48.4106,-24.9796],[-48.2156,-25.0762],[-48.1144,-25.2502],[-48.0985,-25.3109],[-47.9185,-25.153],[-47.8731,-25.0119],[-47.7718,-24.9126],[-47.6163,-24.7917],[-47.2505,-24.5754],[-47.0775,-24.4428],[-47.0032,-24.4088],[-47.0002,-24.3293],[-46.823,-24.2054],[-46.6048,-24.0892],[-46.3247,-23.9728],[-46.2837,-24.0258],[-46.1853,-23.9864],[-46.1333,-23.8569],[-46.1183,-23.8351],[-45.9027,-23.765],[-45.5612,-23.7911],[-45.5025,-23.8413],[-45.4046,-23.8196],[-45.4323,-23.6837],[-45.1749,-23.5],[-45.0836,-23.4953],[-45.0146,-23.418],[-44.8874,-23.3371],[-44.8438,-23.3869],[-44.724,-23.3676],[-44.8885,-23.224],[-44.8244,-23.161],[-44.7819,-22.9787],[-44.6066,-22.8852],[-44.4666,-22.8846],[-44.2695,-22.8298],[-44.2571,-22.768],[-44.1617,-22.6741],[-44.2323,-22.608],[-44.3912,-22.5729],[-44.5082,-22.6404],[-44.6449,-22.6021],[-44.7547,-22.4144],[-44.8088,-22.4048],[-44.8985,-22.4523],[-45.0602,-22.4721],[-45.1641,-22.5374],[-45.41,-22.6512],[-45.4713,-22.59],[-45.5245,-22.6464],[-45.5763,-22.6019],[-45.6935,-22.6512],[-45.7164,-22.7795],[-45.7657,-22.8419],[-45.9221,-22.8236],[-46.008,-22.8887],[-46.1549,-22.8637],[-46.3448,-22.9042],[-46.3764,-22.8273],[-46.3348,-22.7597],[-46.4523,-22.7271],[-46.3959,-22.6455],[-46.4541,-22.5219],[-46.6311,-22.4353],[-46.7175,-22.3164],[-46.6703,-22.1838],[-46.6126,-22.1498],[-46.685,-22.0369],[-46.6178,-21.9944],[-46.6905,-21.8365],[-46.5171,-21.6114],[-46.5198,-21.448],[-46.6023,-21.4433],[-46.6471,-21.3925],[-46.7759,-21.3623],[-46.908,-21.4207],[-46.9992,-21.4205],[-46.9976,-21.3503],[-47.1183,-21.1853],[-47.1127,-21.1044],[-47.1433,-20.9819],[-47.2396,-20.8848],[-47.1858,-20.7306],[-47.1183,-20.7068],[-47.0969,-20.6439],[-47.1539,-20.5192],[-47.2913,-20.4488],[-47.2978,-20.348],[-47.2307,-20.2186],[-47.3092,-20.124],[-47.4027,-20.0823],[-47.4659,-19.9637],[-47.5806,-19.9954],[-47.6355,-20.0479],[-47.7038,-19.9794],[-47.8593,-19.9925],[-47.8939,-20.1234],[-48.0029,-20.1042],[-48.07,-20.1461],[-48.1784,-20.0953],[-48.2029,-20.045],[-48.3193,-20.113],[-48.5542,-20.1298],[-48.6464,-20.1661],[-48.7291,-20.1498],[-48.8552,-20.1816],[-48.885,-20.2687],[-48.8671,-20.3982],[-48.9684,-20.3933],[-48.9613,-20.2628],[-48.9918,-20.1649],[-49.0674,-20.154],[-49.1203,-20.2688],[-49.1791,-20.3097],[-49.259,-20.2578],[-49.3081,-20.1015],[-49.2971,-19.9601],[-49.4399,-19.9803],[-49.551,-19.9054],[-49.6407,-19.9314],[-49.782,-19.924],[-49.8908,-19.9432],[-50.0117,-19.9262],[-50.1023,-19.8754],[-50.3523,-19.8641],[-50.4714,-19.7792],[-50.5755,-19.8156],[-50.6564,-19.9049],[-50.7831,-19.9368],[-50.966,-20.0341],[-51,-20.0849]]],[[[-45.3209,-23.9149],[-45.2388,-23.8186],[-45.2752,-23.7349],[-45.341,-23.7271],[-45.3659,-23.8096],[-45.4617,-23.8878],[-45.4274,-23.9404],[-45.3209,-23.9149]]]]},"properties":{"name":"SP","fullName":"São Paulo"}},
{"type":"Feature","geometry":{"type":"Polygon","coordinates":[[[-45.7225,-10.1549],[-45.7436,-10.2395],[-45.7933,-10.2673],[-45.8774,-10.2389],[-45.946,-10.2582],[-46.0173,-10.24],[-46.0228,-10.183],[-46.1642,-10.2125],[-46.2017,-10.1735],[-46.3271,-10.1833],[-46.4435,-10.0772],[-46.4772,-9.9879],[-46.4704,-9.8976],[-46.5117,-9.7986],[-46.6424,-9.7411],[-46.5789,-9.5837],[-46.5728,-9.4774],[-46.6272,-9.4653],[-46.6655,-9.3915],[-46.7582,-9.3808],[-46.8125,-9.3055],[-46.8192,-9.2112],[-46.8603,-9.1471],[-46.9259,-9.1345],[-46.9426,-9.0641],[-47.0574,-9.0526],[-47.031,-8.9855],[-46.9921,-8.879],[-46.9179,-8.8433],[-46.9309,-8.7264],[-46.8865,-8.6861],[-46.9123,-8.5915],[-46.8467,-8.5327],[-46.782,-8.3677],[-46.6348,-8.3189],[-46.5442,-8.3189],[-46.4871,-8.1995],[-46.47,-8.0844],[-46.4917,-7.9813],[-46.6042,-7.8958],[-46.708,-7.9095],[-46.7997,-7.955],[-46.8822,-7.9637],[-46.997,-8.0668],[-47.0431,-8.0532],[-47.1424,-7.8944],[-47.2341,-7.8235],[-47.2609,-7.7479],[-47.4273,-7.5254],[-47.4975,-7.4788],[-47.4994,-7.2935],[-47.5887,-7.2637],[-47.6513,-7.2999],[-47.7364,-7.2164],[-47.6599,-7.151],[-47.5459,-7.0144],[-47.5066,-6.8716],[-47.4982,-6.6708],[-47.3784,-6.2705],[-47.4162,-6.1774],[-47.4475,-5.9925],[-47.4419,-5.8304],[-47.4929,-5.7302],[-47.4828,-5.5645],[-47.5549,-5.4654],[-47.6182,-5.4594],[-47.7418,-5.3809],[-47.8271,-5.3862],[-47.8851,-5.2603],[-48.014,-5.2379],[-48.0788,-5.2747],[-48.1781,-5.2604],[-48.3635,-5.168],[-48.519,-5.1918],[-48.6057,-5.3361],[-48.679,-5.3055],[-48.7547,-5.3488],[-48.6287,-5.4097],[-48.5103,-5.4293],[-48.3931,-5.3938],[-48.3003,-5.5226],[-48.1377,-5.6023],[-48.1739,-5.7088],[-48.2721,-5.7251],[-48.2885,-5.8426],[-48.2312,-5.9458],[-48.321,-5.9851],[-48.2827,-6.0812],[-48.436,-6.193],[-48.4116,-6.3057],[-48.4998,-6.3506],[-48.6127,-6.4534],[-48.6639,-6.5702],[-48.6515,-6.6396],[-48.8137,-6.7514],[-49.0184,-6.7838],[-49.209,-6.925],[-49.1848,-7.2348],[-49.231,-7.3254],[-49.3775,-7.4961],[-49.3814,-7.5663],[-49.3412,-7.6569],[-49.1603,-7.791],[-49.1623,-7.9001],[-49.2154,-8.1938],[-49.2829,-8.3792],[-49.349,-8.418],[-49.4094,-8.5796],[-49.592,-8.8391],[-49.6839,-8.8561],[-49.8421,-9.0269],[-49.9072,-9.1734],[-50.0503,-9.3127],[-50.1049,-9.475],[-50.0891,-9.5453],[-50.2243,-9.8408],[-50.312,-10.0453],[-50.3917,-10.1336],[-50.3819,-10.2213],[-50.4227,-10.3302],[-50.5156,-10.5047],[-50.5193,-10.5621],[-50.603,-10.6605],[-50.5701,-10.7521],[-50.6215,-10.839],[-50.6325,-10.9355],[-50.609,-11.067],[-50.6586,-11.1304],[-50.654,-11.218],[-50.7416,-11.4545],[-50.7397,-11.5382],[-50.6645,-11.5848],[-50.6631,-11.6721],[-50.7211,-11.7313],[-50.6858,-11.8586],[-50.6388,-11.8842],[-50.6825,-11.9941],[-50.6672,-12.0641],[-50.6782,-12.2184],[-50.6228,-12.4534],[-50.706,-12.6093],[-50.6228,-12.7339],[-50.613,-12.818],[-50.5106,-12.8603],[-50.4182,-12.6242],[-50.3655,-12.5456],[-50.2119,-12.4367],[-50.2079,-12.5726],[-50.2953,-12.6841],[-50.3108,-12.7981],[-50.183,-12.8963],[-50.0784,-12.9055],[-49.939,-12.9565],[-49.369,-13.2742],[-49.3416,-13.2547],[-49.3539,-13.1026],[-49.2281,-12.8775],[-49.1186,-12.7899],[-48.9752,-12.9568],[-48.8694,-12.804],[-48.7484,-12.9172],[-48.7303,-12.9894],[-48.6379,-13.0179],[-48.5782,-13.1262],[-48.4721,-13.1423],[-48.4464,-13.2833],[-48.3074,-13.2273],[-48.1735,-13.1477],[-48.1511,-13.3061],[-48.0221,-13.2794],[-47.8885,-13.3176],[-47.8235,-13.3114],[-47.6785,-13.4673],[-47.6385,-13.3906],[-47.6685,-13.209],[-47.6175,-13.1043],[-47.5626,-13.1838],[-47.4784,-13.1847],[-47.4344,-13.2678],[-47.3773,-13.2302],[-47.3226,-13.2579],[-47.2287,-13.1944],[-47.0895,-13.1736],[-46.9535,-13.1107],[-46.8925,-13.0528],[-46.7502,-12.9687],[-46.4542,-12.9707],[-46.4172,-12.823],[-46.3658,-12.8644],[-46.3634,-12.9908],[-46.1941,-12.9562],[-46.1139,-12.9175],[-46.3044,-12.9494],[-46.2619,-12.8312],[-46.2898,-12.6313],[-46.2548,-12.5466],[-46.1602,-12.5282],[-46.1587,-12.4749],[-46.2486,-12.4366],[-46.3725,-12.2898],[-46.3732,-12.015],[-46.2846,-11.8855],[-46.3742,-11.8682],[-46.3147,-11.6442],[-46.1866,-11.6057],[-46.313,-11.5391],[-46.4109,-11.5415],[-46.5196,-11.4831],[-46.5489,-11.3803],[-46.6155,-11.3018],[-46.5816,-11.2464],[-46.4719,-11.1908],[-46.3985,-10.994],[-46.283,-10.9063],[-46.2755,-10.8232],[-46.1921,-10.7193],[-46.2105,-10.6493],[-46.0591,-10.593],[-46.0246,-10.5424],[-45.8876,-10.4491],[-45.8243,-10.3656],[-45.7507,-10.3516],[-45.6971,-10.2632],[-45.7225,-10.1549]]]},"properties":{"name":"TO","fullName":"Tocantins"}},
{"type":"Feature","geometry":{"type":"Polygon","coordinates":[[[-47.3084,-16.0501],[-47.3086,-16.0355],[-47.3682,-16.0015],[-47.3758,-15.8803],[-47.3125,-15.7376],[-47.322,-15.5975],[-47.3741,-15.5779],[-47.4169,-15.4999],[-48.1972,-15.5005],[-48.1999,-15.6214],[-48.2404,-15.7065],[-48.2115,-15.7554],[-48.2866,-15.8427],[-48.2521,-15.9537],[-48.2787,-16.0511],[-47.3084,-16.0501]]]},"properties":{"name":"DF","fullName":"Distrito Federal"}}
]}